title;categories;address;kgmid;latitude;longitude;neighborhood;reviewsCount;totalScore;url;imageUrl;openingHours/1/minggu/hours;openingHours/2/senin/hours;openingHours/3/selasa/hours;openingHours/4/rabu/hours;openingHours/5/kamis/hours;openingHours/6/jumat/hours;openingHours/7/sabtu/hours;permanentlyClosed;description
Warung Lesehan Yogyakarta;Restoran Indonesia;Jl. Kendal Sari Bar. No.8, Tulusrejo, Kec. Lowokwaru, Kota Malang, Jawa Timur 65141, Indonesia;/g/1ptz8194c;-7,9437614;112,6220271;Tulusrejo, Kecamatan Lowokwaru;8531;4,5;https://www.google.com/maps/search/?api=1&query=Warung%20Lesehan%20Yogyakarta&query_place_id=ChIJ2wrJTeYp1i0Ri42zPhHPQDc;https://lh5.googleusercontent.com/p/AF1QipPPgqPHyJKiLM629XMeE5nD1jKnssWB88lbBtzj=w408-h306-k-no;10.00 to 22.00;10.00 to 22.00;10.00 to 22.00;10.00 to 22.00;10.00 to 22.00;10.00 to 22.00;10.00 to 22.00;false;Tempat yang cukup besar, nyaman, dan bernuansa hangat yang menyajikan makanan khas tradisional Jawa.
Baegopa? House Of Hungry Kandang Malang;Restoran Masakan Ayam;Jl. Trs.Candi Mendut No.39, Mojolangu, Kec. Lowokwaru, Kota Malang, Jawa Timur 65142, Indonesia;/g/11f5bnpqzd;-7,9409705;112,6286686;Mojolangu, Kecamatan Lowokwaru;5180;4,6;https://www.google.com/maps/search/?api=1&query=Baegopa%3F%20House%20Of%20Hungry%20Kandang%20Malang&query_place_id=ChIJud3Af-cp1i0Rvan95AX8Ze8;https://lh5.googleusercontent.com/p/AF1QipOqcaCR9-CwJxqCzMUWR2lL7uXMh83IsbSwhKV4=w408-h306-k-no;10.00 to 22.00;10.00 to 22.00;10.00 to 22.00;10.00 to 22.00;10.00 to 22.00;10.00 to 22.00;10.00 to 22.00;false;Tempat kumpul keluarga yang menyajikan makanan rumahan khas Barat & Asia bersuasana santai plus taman bermain.
Nakoa Cafe Dinoyo;Kafe;Jl. MT. Haryono No.116 kav.2, Dinoyo, Kec. Lowokwaru, Kota Malang, Jawa Timur 65145, Indonesia;/g/11fsw8v0hc;-7,9466314;112,6126968;Dinoyo, Kecamatan Lowokwaru;2163;4,9;https://www.google.com/maps/search/?api=1&query=Nakoa%20Cafe%20Dinoyo&query_place_id=ChIJ3e7WU_2DeC4RcyUXGgPrFv0;https://lh5.googleusercontent.com/p/AF1QipMUJF91O4FHyFk15LHrdrvVpDBDVu5hXS9eWTw-=w408-h306-k-no;09.00 to 00.00;09.00 to 00.00;09.00 to 00.00;09.00 to 00.00;09.00 to 00.00;09.00 to 00.00;09.00 to 00.00;false;tempat ini tentu menawarkan berbagai jenis minuman, seperti kopi, teh, dan minuman lainnya, serta juga menyediakan makanan ringan atau makanan berat.
Kakkoii Japanese BBQ & Shabu - Soekarno Hatta;Restoran Jepang;Jl. soekarno Hatta PTP II No.Kavling 8, Mojolangu, Kec. Lowokwaru, Kota Malang, Jawa Timur 65142, Indonesia;/g/11t1j4jg_v;-7,9372155;112,6259551;Mojolangu, Kecamatan Lowokwaru;3623;4,9;https://www.google.com/maps/search/?api=1&query=Kakkoii%20Japanese%20BBQ%20%26%20Shabu%20-%20Soekarno%20Hatta&query_place_id=ChIJb6lOOBop1i0RZ6aE7niAH3w;https://lh5.googleusercontent.com/p/AF1QipM02CcGPWYbzbiUVrfHu1URXTK7qylcoITVRg1p=w408-h306-k-no;10.00 to 22.00;11.00 to 22.00;11.00 to 22.00;11.00 to 22.00;11.00 to 22.00;12.00 to 22.00;11.00 to 22.00;false;Kakkoli Japanese BBQ & Shabu di Malang menjadi pilihan yang menarik bagi pecinta kuliner Jepang. Dengan lokasi yang strategis, rating tinggi, dan menu yang fokus pada BBQ dan shabu-shabu
Ketoprak Aa Khas Jakarta;Kedai Sarapan & Makan Siang;Jl. Cengger Ayam I No.13, RW.02, Tulusrejo, Kec. Lowokwaru, Kota Malang, Jawa Timur 65141, Indonesia;/g/11q856t5vq;-7,945186;112,629481;Tulusrejo, Kecamatan Lowokwaru;12;4,6;https://www.google.com/maps/search/?api=1&query=Ketoprak%20Aa%20Khas%20Jakarta&query_place_id=ChIJfxXOwbYp1i0RnN1QwGm9WKM;https://lh5.googleusercontent.com/p/AF1QipMySRYogqJ897oeZ5e6Owq7CUYyp8nidzqRuzY=w408-h544-k-no;07.30 to 15.00;07.30 to 15.00;07.30 to 15.00;07.30 to 15.00;07.30 to 15.00;07.30 to 15.00;07.30 to 15.00;false;Ketoprak Aa Khas Jakarta di Malang menjadi pilihan yang menarik bagi Anda yang ingin mencoba ketoprak dengan cita rasa khas Jakarta
Semusim Cafe;Kafe;Jl. MT. Haryono No.110, Ketawanggede, Kec. Lowokwaru, Kota Malang, Jawa Timur 65145, Indonesia;/g/11j34gjxct;-7,9471786;112,6134383;Ketawanggede, Kecamatan Lowokwaru;1077;4,5;https://www.google.com/maps/search/?api=1&query=Semusim%20Cafe&query_place_id=ChIJv0BPA2ydeC4Rx7dUnsWDb-o;https://lh5.googleusercontent.com/p/AF1QipMd1leMubnGM_kSm_gGCejGnOotMqKEeAE-_AJu=w426-h240-k-no;10.00 to 00.00;10.00 to 00.00;10.00 to 00.00;10.00 to 00.00;10.00 to 00.00;10.00 to 00.00;10.00 to 00.00;false;Semusim Cafe di Malang menjadi pilihan yang menarik bagi Anda yang mencari tempat untuk bersantai dan menikmati minuman atau makanan ringan. Dengan lokasi yang strategis, dan menawarkan suasana yang nyaman
Sammar Restaurant (Pakistan Cuisines);Restoran;Sammar Restaurant, Jl. Simpang Remujung No.1, Jatimulyo, Kec. Lowokwaru, Kota Malang, Jawa Timur 65141, Indonesia;/g/11vdlj7w7r;-7,9446147;112,6156735;Jatimulyo, Kecamatan Lowokwaru;44;4,5;https://www.google.com/maps/search/?api=1&query=Sammar%20Restaurant%20(Pakistan%20Cuisines)&query_place_id=ChIJWdp_BEmDeC4RwfTb8-Zd1p8;https://lh5.googleusercontent.com/p/AF1QipPfEQBxbKE76dxyCslPeajOamGa6TSPwpwGb6MS=w426-h240-k-no;08.00 to 22.00;10.00 to 22.00;10.00 to 22.00;10.00 to 22.00;10.00 to 22.00;10.00 to 22.00;08.00 to 22.00;false;Sammar Restaurant menyediakan pengalaman kuliner Pakistan yang autentik di Malang
kulonetan cafe;Kafe;Jl. Puring No.12, Jatimulyo, Kec. Lowokwaru, Kota Malang, Jawa Timur 65141, Indonesia;/g/11p0b4vg_m;-7,9482931;112,6289781;Jatimulyo, Kecamatan Lowokwaru;114;4,8;https://www.google.com/maps/search/?api=1&query=kulonetan%20cafe&query_place_id=ChIJi0jHFIsp1i0Rr82n1GCRC6k;https://lh5.googleusercontent.com/p/AF1QipOcn8GVjlvocGFqiQ6yS2KeS5n1dk9dXZZHbyRO=w408-h544-k-no;12.00 to 22.00;12.00 to 22.00;12.00 to 22.00;12.00 to 22.00;12.00 to 22.00;12.00 to 22.00;12.00 to 22.00;false;Kulonetan Cafe di Malang menjadi pilihan yang menarik bagi Anda yang mencari tempat untuk bersantai dan menikmati minuman atau makanan ringan.
Hore Dimsum Malang;Restoran Dim Sum;Jl. MT. Haryono No.3, Dinoyo, Kec. Lowokwaru, Kota Malang, Jawa Timur 65145, Indonesia;/g/11fn04z8x4;-7,9464159;112,6130824;Dinoyo, Kecamatan Lowokwaru;14;4,9;https://www.google.com/maps/search/?api=1&query=Hore%20Dimsum%20Malang&query_place_id=ChIJzcdwCPCDeC4RiAg3rWj7f5o;https://lh5.googleusercontent.com/p/AF1QipNCYKk8DzwXtWQHTbCwVm0N1puBA8CRbk40hy-T=w408-h306-k-no;09.30 to 19.00;09.30 to 19.00;09.30 to 19.00;09.30 to 19.30;09.30 to 19.30;09.30 to 19.30;09.00 to 19.30;false;Tempat untuk menikmati hidangan dim sum yang lezat di Malang
Sejenak Coffee;Kafe;Jl. Bunga Mondokaki No.30, Jatimulyo, Kec. Lowokwaru, Kota Malang, Jawa Timur 65141, Indonesia;/g/11h_y1bylq;-7,9494825;112,6247244;Jatimulyo, Kecamatan Lowokwaru;928;4,5;https://www.google.com/maps/search/?api=1&query=Sejenak%20Coffee&query_place_id=ChIJhXQdCQEp1i0RjRPWZc15e6s;https://lh5.googleusercontent.com/p/AF1QipOyKIhBiSCaBwSQE5BAEEtYNZ5sALYQwCLfWC7I=w426-h240-k-no;07.00 to 22.00;07.00 to 22.00;07.00 to 22.00;07.00 to 22.00;07.00 to 22.00;07.00 to 22.00;07.00 to 22.00;false;Sejenak Coffee di Malang menjadi pilihan yang menarik bagi Anda yang mencari tempat untuk bersantai dan menikmati minuman sambil menikmati suasana yang tenang.
Ocean Garden Soekarno Hatta;Restoran Seafood;Jl. Soekarno Hatta No.83B, Mojolangu, Kec. Lowokwaru, Kota Malang, Jawa Timur 65100, Indonesia;/g/11xgkxqcn;-7,9382;112,6277;Mojolangu, Kecamatan Lowokwaru;5501;4,4;https://www.google.com/maps/search/?api=1&query=Ocean%20Garden%20Soekarno%20Hatta&query_place_id=ChIJG3MB7-Yp1i0RxXWeQgA5FgY;https://lh5.googleusercontent.com/p/AF1QipN7-d3X1FrOzje47KIAhkScjZZjkVtD0cp45ixc=w408-h306-k-no;10.00 to 22.00;10.00 to 22.00;10.00 to 22.00;10.00 to 22.00;10.00 to 22.00;10.00 to 22.00;10.00 to 22.00;false;Tempat makan yang menyajikan aneka hidangan khas Jawa dan seafood segar, menerima pesanan nasi kotak.
Nakoa Cafe Panjaitan;Kafe;Jl. Mayjend Panjaitan No.75, Penanggungan, Kec. Klojen, Kota Malang, Jawa Timur 65113, Indonesia;/g/11tjn15vyr;-7,957179;112,6224806;Penanggungan, Kecamatan Klojen;3657;4,9;https://www.google.com/maps/search/?api=1&query=Nakoa%20Cafe%20Panjaitan&query_place_id=ChIJYZDB26Ep1i0RMao4zBLoQDk;https://lh5.googleusercontent.com/p/AF1QipPSyzvdb4-6VtCEj7f-PCYPJTjNefPbiW9sVGg-=w426-h240-k-no;09.00 to 00.00;09.00 to 00.00;09.00 to 00.00;09.00 to 00.00;09.00 to 00.00;09.00 to 00.00;09.00 to 00.00;false;Nakoa menawarkan berbagai jenis minuman, seperti kopi, teh, dan minuman lainnya, serta kemungkinan juga menyediakan makanan ringan atau makanan berat.
Burger Lujab;Restoran Hamburger;Jl. Melati No.44, Lowokwaru, Kec. Lowokwaru, Kota Malang, Jawa Timur 65141, Indonesia;/g/11v66h2sgc;-7,9533333;112,6320011;Lowokwaru, Kecamatan Lowokwaru;15;5;https://www.google.com/maps/search/?api=1&query=Burger%20Lujab&query_place_id=ChIJs3D8FCEp1i0RRQDdZGxotXg;https://lh5.googleusercontent.com/p/AF1QipNWObkpb1ekiP0vFK6z7PGd_8uFYlcQaQVvTnpP=w408-h725-k-no;Tutup;14.00 to 21.00;14.00 to 21.00;14.00 to 21.00;14.00 to 21.00;14.00 to 21.00;14.00 to 21.00;false;Burger Lujab menyediakan berbagai macam jenis burger dengan citra rasa yang enak tapi harga yang masih ramah dikantong
Labore coffee eatery;Kafe;Jl. Soekarno Hatta No.25, Mojolangu, Kec. Lowokwaru, Kota Malang, Jawa Timur 65142, Indonesia;/g/11bwf7gt84;-7,9392489;112,6306143;Mojolangu, Kecamatan Lowokwaru;2251;4,5;https://www.google.com/maps/search/?api=1&query=Labore%20coffee%20eatery&query_place_id=ChIJoZrMyOcp1i0REjNiEh_PmI0;https://lh5.googleusercontent.com/p/AF1QipOfQZiTAlelbpLwqObQxLkM7LyYVPs4JConp8lz=w426-h240-k-no;08.30 to 23.00;08.30 to 23.00;08.30 to 23.00;08.30 to 23.00;08.30 to 23.00;08.30 to 23.00;08.30 to 23.00;false;Tempat nongkrong nyaman dan kasual menyajikan aneka menu makanan fusion serta kopi yang berkualitas.
Bureau Coffee & Dine;Kafe;Sch Malang, Jl. Soekarno - Hatta No.509 Lt. 2, Mojolangu, Kec. Lowokwaru, Kota Malang, Jawa Timur 65142, Indonesia;/g/11c6lbz0gc;-7,9406969;112,6233112;Mojolangu, Kecamatan Lowokwaru;1791;4,5;https://www.google.com/maps/search/?api=1&query=Bureau%20Coffee%20%26%20Dine&query_place_id=ChIJz9GkjuAp1i0RiPHy-hDXS90;https://lh5.googleusercontent.com/p/AF1QipPJqIIqNiAOtMx2-NyCuPpZOptwzjCjmuxcT954=w408-h306-k-no;10.00 to 22.00;10.00 to 22.00;10.00 to 22.00;10.00 to 22.00;10.00 to 22.00;10.00 to 22.00;10.00 to 22.00;false;tempat yang nyaman untuk bersantai atau bekerja sambil menikmati secangkir kopi atau makanan ringan di Malang
7 Seven Chicken;Restoran Masakan Ayam;Komplek Ruko Grand Soekarno Hatta, Jl. Soekarno Hatta No.33, Mojolangu, Kec. Lowokwaru, Kota Malang, Jawa Timur 65142, Indonesia;/g/11g094367q;-7,9391054;112,6311238;Mojolangu, Kecamatan Lowokwaru;4702;4,6;https://www.google.com/maps/search/?api=1&query=7%20Seven%20Chicken&query_place_id=ChIJ-ZEZ0tUp1i0RCV7Epo52Tt8;https://lh5.googleusercontent.com/p/AF1QipOFIfNT1DN2bM6E1BFVenAGY0ptZnoqLbCaWSF4=w426-h240-k-no;Buka 24 jAM;Buka 24 jAM;Buka 24 jAM;Buka 24 jAM;Buka 24 jAM;Buka 24 jAM;Buka 24 jAM;false;Tempat ini khusus menyajikan masakan ayam
Jeda Cafe;Kedai Kopi;Jl. Kendalsari No.35, Tulusrejo, Kec. Lowokwaru, Kota Malang, Jawa Timur 65141, Indonesia;/g/11kqjnz6d_;-7,9448497;112,6268611;Tulusrejo, Kecamatan Lowokwaru;152;4,9;https://www.google.com/maps/search/?api=1&query=Jeda%20Cafe&query_place_id=ChIJ19Rldacp1i0RRNxnWP3HBYU;https://lh5.googleusercontent.com/p/AF1QipMhXtH29SrTTNFg7Jf2_xaPhpHzKZcIAQIZpVb5=w408-h544-k-no;08.00 to 23.00;08.00 to 23.00;08.00 to 23.00;08.00 to 23.00;08.00 to 23.00;08.00 to 00.00;08.00 to 00.00;false;Tepat yang menyediakan berbagai jenis minuman dengan tempat yang nyaman
BURGER SHOT - Borobudur;Restoran Hamburger;No.65 Kav 6, Jl. Borobudur, Mojolangu, Kec. Lowokwaru, Kota Malang, Jawa Timur 65142, Indonesia;/g/11cjkqk_6z;-7,9390162;112,633588;Mojolangu, Kecamatan Lowokwaru;2964;4,7;https://www.google.com/maps/search/?api=1&query=BURGER%20SHOT%20-%20Borobudur&query_place_id=ChIJgaGOXOgp1i0RGo9UxRl6zAA;https://lh5.googleusercontent.com/p/AF1QipPjv6RdwlASR0Y99XSt6Vg7TNoaJJYROsoo7cK3=w408-h306-k-no;08.00 to 23.00;08.00 to 23.00;08.00 to 23.00;08.00 to 23.00;08.00 to 23.00;08.00 to 23.00;08.00 to 23.00;false;Tempat yang menyediakan menu spesialis berupa Burger
Amstirdam Coffee & Roastery;Kedai Kopi;Ruko Soekarno Hatta Indah. D18, Mojolangu, Kec. Lowokwaru, Kota Malang, Jawa Timur 65142, Indonesia;/g/1hc1y25sq;-7,9401773;112,6321863;Mojolangu, Kecamatan Lowokwaru;2994;4,7;https://www.google.com/maps/search/?api=1&query=Amstirdam%20Coffee%20%26%20Roastery&query_place_id=ChIJT8KxDugp1i0R_TWeILJ7IcE;https://lh5.googleusercontent.com/p/AF1QipNw9qQWLCBMkh-i1TbOIj56zFnoXdHYaYq15BV4=w408-h289-k-no;09.00 to 22.00;09.00 to 22.00;09.00 to 22.00;09.00 to 22.00;09.00 to 22.00;09.00 to 22.00;09.00 to 22.00;false;tempat ini tentu menawarkan berbagai jenis minuman, seperti kopi, teh, dan minuman lainnya
Dialoogi Space & Coffee;Kafe;Jl. Soekarno Hatta No.D-505, Mojolangu, Kec. Lowokwaru, Kota Malang, Jawa Timur 65141, Indonesia;/g/11j0287rvv;-7,9402221;112,6237769;Mojolangu, Kecamatan Lowokwaru;1112;4,6;https://www.google.com/maps/search/?api=1&query=Dialoogi%20Space%20%26%20Coffee&query_place_id=ChIJRXLGt_Qp1i0RRVvMqcPcmtc;https://lh5.googleusercontent.com/p/AF1QipPf0zNS_OXu6S6U4KsKW-L5abuEXe1j2Lt6lqQ3=w408-h306-k-no;09.00 to 23.00;09.00 to 23.00;09.00 to 23.00;09.00 to 23.00;09.00 to 23.00;09.00 to 23.00;09.00 to 23.00;false;Tempat nongkrong nyaman dan kasual menyajikan aneka menu makanan fusion serta kopi yang berkualitas.
Chefkim;Restoran Korea;Jl. Soekarno Hatta No.11, Jatimulyo, Kec. Lowokwaru, Kota Malang, Jawa Timur 65141, Indonesia;/g/11spddknyw;-7,9454383;112,618409;Jatimulyo, Kecamatan Lowokwaru;1109;4,7;https://www.google.com/maps/search/?api=1&query=Chefkim&query_place_id=ChIJ3WtDediDeC4R8k53Ta8l98o;https://lh5.googleusercontent.com/p/AF1QipMjDBjctTY8GXIVWG8YBPzC0zqRjaF_sPYGnArl=w426-h240-k-no;09.00 to 22.00;10.00 to 22.00;10.00 to 22.00;10.00 to 22.00;10.00 to 22.00;10.00 to 22.00;10.00 to 22.00;false;Tempat ini khusus menyajikan masakan ayam
Gladiol Cafe;Kedai Kopi;Jl. Kalpataru No.56, Jatimulyo, Kec. Lowokwaru, Kota Malang, Jawa Timur 65141, Indonesia;/g/11b6b64zr4;-7,9498466;112,6291869;Jatimulyo, Kecamatan Lowokwaru;159;4,3;https://www.google.com/maps/search/?api=1&query=Gladiol%20Cafe&query_place_id=ChIJmfuq9top1i0RZpAtvGDwxj4;https://lh5.googleusercontent.com/p/AF1QipNoASxOLpOGf6TBpnll3lSF35VRwvlKh9Zhhl3-=w426-h240-k-no;07.00 to 22.00;07.00 to 22.00;07.00 to 22.00;07.00 to 22.00;07.00 to 22.00;07.00 to 22.00;07.00 to 22.00;false;Tepat yang menyediakan berbagai jenis minuman dengan tempat yang nyaman
Barelo Restaurant;Restoran;Jl. Veteran No.8 A, Penanggungan, Kec. Klojen, Kota Malang, Jawa Timur 65113, Indonesia;/g/11fr3l07nr;-7,9556424;112,618726;Penanggungan, Kecamatan Klojen;10;4,3;https://www.google.com/maps/search/?api=1&query=Barelo%20Restaurant&query_place_id=ChIJwXkgkXiCeC4RzvFCjiVhZFs;https://lh5.googleusercontent.com/p/AF1QipM_MSPJgFjgwe13MiqLjzTcabO1taHcl8LWWRA8=w408-h527-k-no;09.00 to 21.00;09.00 to 21.00;09.00 to 21.00;09.00 to 21.00;09.00 to 21.00;09.00 to 21.00;09.00 to 21.00;false;Tempat yang menyediakan berbagai menu makan yang nikmat
Point Cafe Soekarno Hatta Utara;Kedai Kopi;Jl. Soekarno Hatta No.utara 22, Jatimulyo, Lowokwaru, Malang City, East Java 65141, Indonesia;/g/11b6c9_kjt;-7,9459094;112,6185567;Jatimulyo, Kecamatan Lowokwaru;462;4,4;https://www.google.com/maps/search/?api=1&query=Point%20Cafe%20Soekarno%20Hatta%20Utara&query_place_id=ChIJtSSD63WCeC4Rbi1hRUvUoDQ;https://lh5.googleusercontent.com/p/AF1QipNXtQ8JQk9peiO5jOqjdbe9hfe6wnuFFdUJJlsq=w408-h306-k-no;07.00 to 22.00;07.00 to 22.00;07.00 to 22.00;07.00 to 22.00;07.00 to 22.00;07.00 to 22.00;07.00 to 22.00;false;Tepat yang menyediakan berbagai jenis minuman
Cafe Signore;Kafe;Jl. Semanggi Timur No.6, Jatimulyo, Kec. Lowokwaru, Kota Malang, Jawa Timur 65141, Indonesia;/g/11g8wnbj3s;-7,9471454;112,6188174;Jatimulyo, Kecamatan Lowokwaru;55;4,5;https://www.google.com/maps/search/?api=1&query=Cafe%20Signore&query_place_id=ChIJ__-e3nWCeC4R2kWiBRja-_M;https://lh5.googleusercontent.com/p/AF1QipNFx4bfwYRxJk0rClpdeXEiyMDoY2l9bQ2oiJvz=w426-h240-k-no;10.00 to 22.00;10.00 to 22.00;10.00 to 22.00;10.00 to 22.00;10.00 to 22.00;10.00 to 22.00;10.00 to 22.00;false;Tepat yang menyediakan berbagai jenis minuman dan makanan
HD'R Comic Cafe;Kafe;Jl. Bunga Coklat No.11, Jatimulyo, Kec. Lowokwaru, Kota Malang, Jawa Timur 65141, Indonesia;/g/11x9cl3z9;-7,9450366;112,6199196;Jatimulyo, Kecamatan Lowokwaru;508;4,6;https://www.google.com/maps/search/?api=1&query=HD'R%20Comic%20Cafe&query_place_id=ChIJ5zTdYt8p1i0RSw4CYoAD4jU;https://lh5.googleusercontent.com/p/AF1QipPgAAI2H6EYbe2Sv2bpuDVc9c8sgMjdQJAut3cm=w507-h240-k-no;13.00 to 22.00;Tutup;13.00 to 22.00;13.00 to 22.00;13.00 to 22.00;13.00 to 22.00;13.00 to 22.00;false;Tepat yang menyediakan berbagai jenis minuman dan makanan
Meso Coffee;Kedai Kopi;3J5F+2G7, Tulusrejo, Kec. Lowokwaru, Kota Malang, Jawa Timur 65141, Indonesia;/g/11shx069j_;-7,9423859;112,6236941;Tulusrejo, Kecamatan Lowokwaru;44;4,7;https://www.google.com/maps/search/?api=1&query=Meso%20Coffee&query_place_id=ChIJw7OczGsp1i0RZ5kG4ze3EM0;https://lh5.googleusercontent.com/p/AF1QipNb_MNVLSmcWUH_NHZgmSCWM38uzbOb-b51SJaa=w426-h240-k-no;;;;;;;;false;Tepat yang menyediakan berbagai jenis minuman dan makanan
Omino Cafe & Store;Kedai Kopi;Jl. Bunga Pinang Merah No.14B, Jatimulyo, Kec. Lowokwaru, Kota Malang, Jawa Timur 65141, Indonesia;/g/11v0c8srb4;-7,9486259;112,6198766;Jatimulyo, Kecamatan Lowokwaru;43;5;https://www.google.com/maps/search/?api=1&query=Omino%20Cafe%20%26%20Store&query_place_id=ChIJGxGXO1cp1i0R4JfHsP2EJxQ;https://lh5.googleusercontent.com/p/AF1QipNDaDIDTVDpploVEB3UTpDbxTonz5gXX_q57jCv=w426-h240-k-no;13.00 to 22.00;Tutup;13.00 to 22.00;13.00 to 22.00;13.00 to 22.00;13.00 to 22.00;13.00 to 22.00;false;Tepat yang menyediakan berbagai jenis minuman dan makanan
Distrik Coffee Roaster;Bar Kopi Espresso;Jl. Cengger Ayam No.18, RW.02, Tulusrejo, Kec. Lowokwaru, Kota Malang, Jawa Timur 65141, Indonesia;/g/11shq5mgbs;-7,9490868;112,632005;Tulusrejo, Kecamatan Lowokwaru;427;4,6;https://www.google.com/maps/search/?api=1&query=Distrik%20Coffee%20Roaster&query_place_id=ChIJyaZvpgsp1i0R4w8EJFBzXZ0;https://lh5.googleusercontent.com/p/AF1QipOPZuYrSziNbNMwMcubUZ2Al5yQoQXK8z6oELMf=w408-h544-k-no;09.00 to 23.30;09.00 to 23.30;09.00 to 23.30;09.00 to 23.30;09.00 to 23.30;09.00 to 23.30;09.00 to 23.30;false;Tepat yang menyediakan berbagai jenis minuman dan makanan dengan suasana yang nyaman
Lalapan Belut Fresh;Restoran Asia;Jl. Kalpataru No.25, Jatimulyo, Kec. Lowokwaru, Kota Malang, Jawa Timur 65141, Indonesia;/g/11c52q6lwv;-7,9508351;112,6310582;Jatimulyo, Kecamatan Lowokwaru;2910;4,5;https://www.google.com/maps/search/?api=1&query=Lalapan%20Belut%20Fresh&query_place_id=ChIJgya3r9op1i0ROasBcCIAAQ0;https://lh5.googleusercontent.com/p/AF1QipMo7YY7qYwD8dkGdShvhYOUfRP_ogQnVJeXOD-C=w408-h408-k-no;12.00 to 01.00;12.00 to 01.00;12.00 to 01.00;12.00 to 01.00;12.00 to 01.00;12.00 to 01.00;12.00 to 01.00;false;Tempat makan yang menyediakan berbagai jenis menu yang digoreng mulai dari ayam, lele, bebek, belut
Little India Malang;Restoran Makanan Sehat;Perumahan griya shanta ekskutif blok M-506, Kota Malang, Jawa Timur 65141, Indonesia;/g/11tk2vv81c;-7,9403269;112,6191433;Jatimulyo, Kecamatan Lowokwaru;4;4;https://www.google.com/maps/search/?api=1&query=Little%20India%20Malang&query_place_id=ChIJO0gb7TSDeC4RJF7YRpuMaEI;https://lh5.googleusercontent.com/p/AF1QipNzJpnCqjoCl9ONKgV7hT_kGsMbZxRMqyxXTuCu=w408-h489-k-no;07.00 to 22.00;07.00 to 22.00;07.00 to 22.00;07.00 to 22.00;07.00 to 22.00;07.00 to 22.00;07.00 to 22.00;false;Tempat makan yang menyediakan berbagai menu masakan sehat
ETHNIC CAFE;Kafe;Jl. Senggani No.11, Jatimulyo, Kec. Lowokwaru, Kota Malang, Jawa Timur 65141, Indonesia;/g/11j94g0s9k;-7,9451149;112,6155466;Jatimulyo, Kecamatan Lowokwaru;1;5;https://www.google.com/maps/search/?api=1&query=ETHNIC%20CAFE&query_place_id=ChIJbdJ0U2yDeC4RvzfTl2-iZUg;https://streetviewpixels-pa.googleapis.com/v1/thumbnail?panoid=-u6Y9W3UsbY8ALSN6qsAIA&cb_client=search.gws-prod.gps&w=408&h=240&yaw=225.7606&pitch=0&thumbfov=100;;;;;;;;false;Tepat yang menyediakan berbagai jenis minuman dan makanan
NoodleInc - Mie & Dimsum;Restoran Mie;Jl. Soekarno - Hatta, Mojolangu, Kec. Lowokwaru, Kota Malang, Jawa Timur 65141, Indonesia;/g/11b6cq722j;-7,9412289;112,6231905;Mojolangu, Kecamatan Lowokwaru;3204;4,4;https://www.google.com/maps/search/?api=1&query=NoodleInc%20-%20Mie%20%26%20Dimsum&query_place_id=ChIJa9CmhuAp1i0RZB1A3yyOuQc;https://lh5.googleusercontent.com/p/AF1QipO3pzRFFFuXbkgBPcS99bB2KmVnxDE_IHV_8eAl=w426-h240-k-no;11.00 to 23.00;11.00 to 23.00;11.00 to 23.00;11.00 to 23.00;11.00 to 23.00;11.00 to 23.00;11.00 to 23.00;false;Kafe China halal yang menyajikan dim sum & mi dalam suasana santai dan trendi.
INS. Cafe & Eatery;Kedai Kopi;Jl. Pisang Kipas No.16, Jatimulyo, Kec. Lowokwaru, Kota Malang, Jawa Timur 65141, Indonesia;/g/11lt9tygtc;-7,9430633;112,6176282;Jatimulyo, Kecamatan Lowokwaru;2;5;https://www.google.com/maps/search/?api=1&query=INS.%20Cafe%20%26%20Eatery&query_place_id=ChIJg1SiJgCDeC4RwRA7XDF_04w;https://lh5.googleusercontent.com/p/AF1QipOpG6v8qrerAIh-dwWAcEH45dfRtjw8pTJYiNcf=w408-h544-k-no;11.00 to 00.00;11.00 to 00.00;11.00 to 00.00;11.00 to 00.00;11.00 to 00.00;11.00 to 00.00;11.00 to 00.00;false;Tepat yang menyediakan berbagai jenis minuman dan makanan dengan suasana yang nyaman
Warung Lalapan;Restoran Jawa;Jl. Cengger Ayam No.11A, Jatimulyo, Kec. Lowokwaru, Kota Malang, Jawa Timur 65141, Indonesia;/g/11b6szszsq;-7,9493779;112,6319063;Jatimulyo, Kecamatan Lowokwaru;258;4,6;https://www.google.com/maps/search/?api=1&query=Warung%20Lalapan&query_place_id=ChIJ5V1qLcUp1i0RMXKXLELZNtc;https://lh3.googleusercontent.com/gps-proxy/ALd4DhGQ0L5w2Er12VqziBIag1p7Pgnl--K393fLY_6NHfkH6p1L2BHtWLrgMGZWzqe1_OteYJTLgyR2d6PHktncsGwzJPWJv_q_HNqL8BwUNAUJb3vVFF40aWV-K-aA6faDXQz9qkHuZ1IE0kXbPuBCLD7hPT3nbEewDe5w4z0_x0s1ZC6zzU2rT4RKvEyGiOus9zK14g=w408-h306-k-no;09.00 to 23.30;09.00 to 23.30;09.00 to 23.30;09.00 to 23.30;09.00 to 23.30;09.00 to 23.30;09.00 to 23.30;false;Tempat makan yang menyediakan berbagai macam menu lalapan
By Coffee Kiosk Bunga Merak;Bar Kopi Espresso;Jl. Bunga Merak No.2a, Jatimulyo, Kec. Lowokwaru, Kota Malang, Jawa Timur 65141, Indonesia;/g/11f5p_cmcf;-7,9482358;112,6215415;Jatimulyo, Kecamatan Lowokwaru;227;4,6;https://www.google.com/maps/search/?api=1&query=By%20Coffee%20Kiosk%20Bunga%20Merak&query_place_id=ChIJ8yiy2CEp1i0RqjWYU0a2BlA;https://lh5.googleusercontent.com/p/AF1QipMGddKpwZk-HIp6fuE2tlTetFElu2l10cQcRg2D=w408-h544-k-no;08.00 to 23.00;08.00 to 23.00;08.00 to 23.00;08.00 to 23.00;08.00 to 23.00;13.00 to 23.00;08.00 to 23.00;false;Tepat yang menyediakan berbagai jenis minuman dan makanan
Saboten Suhat;Restoran Jepang;Jl. Soekarno Hatta Ptp I No.1, Mojolangu, Kec. Lowokwaru, Kota Malang, Jawa Timur 65141, Indonesia;/g/11f9w6nn1f;-7,9377797;112,6252895;Mojolangu, Kecamatan Lowokwaru;1500;4,6;https://www.google.com/maps/search/?api=1&query=Saboten%20Suhat&query_place_id=ChIJU7gyTjwp1i0RPSqvvmN4UYs;https://lh5.googleusercontent.com/p/AF1QipO6CmZzFcECvaAQIrrQVMiVkB7REAMHLMRr22dI=w408-h544-k-no;12.00 to 22.00;12.00 to 22.00;12.00 to 22.00;12.00 to 22.00;12.00 to 22.00;13.00 to 22.00;12.00 to 22.00;false;Tempat makan yang menyediakan berbagai menu masakan khas Jepang
Katsu Kyodai;Restoran Jepang Autentik;Jl. Bungur No.55, Lowokwaru, Kec. Lowokwaru, Kota Malang, Jawa Timur 65141, Indonesia;/g/11t2td9w87;-7,9528709;112,6316415;Lowokwaru, Kecamatan Lowokwaru;111;4,5;https://www.google.com/maps/search/?api=1&query=Katsu%20Kyodai&query_place_id=ChIJwwewnrIp1i0RQ3j6hp_Jal8;https://lh5.googleusercontent.com/p/AF1QipO9ha40KKtEpndYjk8p5BRDNITropslFjo_aVo=w408-h408-k-no;15.00 to 22.00;15.00 to 22.00;15.00 to 22.00;15.00 to 22.00;15.00 to 22.00;15.00 to 22.00;15.00 to 22.00;false;Tempat makan yang menjadikan katsu sebagai menu utamanya
OIKI DIMSUM & GRILL SUHAT;Restoran Dim Sum;3J4C+XMM, Jatimulyo, Kec. Lowokwaru, Kota Malang, Jawa Timur 65141, Indonesia;/g/11hj7sv2qz;-7,9425335;112,6216828;Jatimulyo, Kecamatan Lowokwaru;1;5;https://www.google.com/maps/search/?api=1&query=OIKI%20DIMSUM%20%26%20GRILL%20SUHAT&query_place_id=ChIJdQw-ofsp1i0RRe7JEGu9f60;https://lh5.googleusercontent.com/p/AF1QipP-9BUi4R_lZrhj2ZYIHWgSz_n_xvVCUUwKsO7P=w408-h544-k-no;13.05 to 01.14;13.00 to 01.15;13.00 to 01.14;13.00 to 01.14;13.00 to 01.14;13.00 to 01.14;13.00 to 01.14;false;Tempat yang menyediakan berbagai macam dimsum yang dapat dine in atau take away
Toiwo House, Coffee & Asian Eatery;Kafe;Jl. Candi Telaga Wangi No.49, Mojolangu, Kec. Lowokwaru, Kota Malang, Jawa Timur 65142, Indonesia;/g/11jhzx9mn4;-7,9456555;112,6360163;Mojolangu, Kecamatan Lowokwaru;92;4,9;https://www.google.com/maps/search/?api=1&query=Toiwo%20House%2C%20Coffee%20%26%20Asian%20Eatery&query_place_id=ChIJ1xk4imIp1i0RwBmP8aEcQEg;https://lh5.googleusercontent.com/p/AF1QipM9i7VeypOU_aOczXzKfrxk6kfxCISGRQly13wv=w408-h544-k-no;11.00 to 21.00;Tutup;11.00 to 21.00;11.00 to 21.00;11.00 to 21.00;11.00 to 21.00;11.00 to 21.00;false;Tepat yang menyediakan berbagai jenis minuman dan makanan bercorak asia
UB Coffee - Coffee & Eatery;Cafe;Jl. MT. Haryono No.169, Ketawanggede, Kec. Lowokwaru, Kota Malang, Jawa Timur 65145, Indonesia;/g/11hcw3t1zh;-7,9477396;112,6132613;Ketawanggede, Lowokwaru;1544;4,6;https://www.google.com/maps/search/?api=1&query=UB%20Coffee%20-%20Coffee%20%26%20Eatery&query_place_id=ChIJBwX8UHGCeC4RQNtPw-dr0ZM;https://lh5.googleusercontent.com/p/AF1QipN76Xg19CJavMMgz3L8sZi8IVvu4Ls-fDj0pael=w408-h271-k-no;7 AM to 10 PM;7 AM to 10:30 PM;7 AM to 10 PM;7 AM to 10 PM;7:30 AM to 10 PM;9 AM to 10:30 PM;12 to 8 PM;false;Tepat yang menyediakan berbagai jenis minuman dan makanan
Searah Malang;Coffee shop;Jl. Ters. Kendalsari No.16, Tulusrejo, Kec. Lowokwaru, Kota Malang, Jawa Timur 65141, Indonesia;/g/11jv8j96_z;-7,9426802;112,6292063;Tulusrejo, Lowokwaru;60;4,8;https://www.google.com/maps/search/?api=1&query=Searah%20Malang&query_place_id=ChIJYWDiXN4p1i0RGVgYSHOdGBo;https://lh5.googleusercontent.com/p/AF1QipN9uLC6r2AyS05vMguvAtdw3fPNYnOx7K3gN2Fe=w408-h725-k-no;8 AM to 12 AM;8 AM to 12 AM;8 AM to 12 AM;8 AM to 12 AM;8 AM to 12 AM;8 AM to 12 AM;8 AM to 12 AM;false;Tepat yang menyediakan berbagai jenis minuman dan makanan dengan tempat yang nyaman untuk bekerja
KAF Cafe;Coffee shop;Jl. MT. Haryono No.127, Ketawanggede, Kec. Lowokwaru, Kota Malang, Jawa Timur 65144, Indonesia;/g/11s3_4lp5q;-7,9450156;112,6115516;Ketawanggede, Lowokwaru;247;4,2;https://www.google.com/maps/search/?api=1&query=KAF%20Cafe&query_place_id=ChIJsz2POTODeC4Rkjn6JK1FJig;https://lh5.googleusercontent.com/p/AF1QipMqFkhLg4I22qSh2NW1dyMgeyzv-4uYLbWXDwMd=w408-h544-k-no;Open 24 hours;Open 24 hours;Open 24 hours;Open 24 hours;Open 24 hours;Open 24 hours;Open 24 hours;false;Tepat yang menyediakan berbagai jenis minuman dan makanan dengan tempat yang nyaman untuk bekerja
CW COFFEE & EATERY Kendal Sari;Coffee shop;3J4C+HQ2, Jl. Kendal Sari Bar., Tulusrejo, Kec. Lowokwaru, Kota Malang, Jawa Timur 65141, Indonesia;/g/11vc1hq5n5;-7,9436295;112,6218643;Tulusrejo, Lowokwaru;123;4,7;https://www.google.com/maps/search/?api=1&query=CW%20COFFEE%20%26%20EATERY%20Kendal%20Sari&query_place_id=ChIJq3Zyvqop1i0RMfIQqdQR6yI;https://lh5.googleusercontent.com/p/AF1QipPxyp8e0H9XkI4CidggFfvPgE5yp_EtcfOkqajB=w408-h544-k-no;Open 24 hours;Open 24 hours;Open 24 hours;Open 24 hours;Open 24 hours;Open 24 hours;Open 24 hours;false;Tepat yang menyediakan berbagai jenis minuman dan makanan dengan tempat yang nyaman 
MACCAFE candi kalasan;Cafe;Jl. Candi Waringin, Mojolangu, Kec. Lowokwaru, Kota Malang, Jawa Timur 65142, Indonesia;/g/11ks2n5cw3;-7,9418054;112,638013;Mojolangu, Lowokwaru;29;5;https://www.google.com/maps/search/?api=1&query=MACCAFE%20candi%20kalasan&query_place_id=ChIJTfv0jMEp1i0RRouBEx1reQg;https://lh5.googleusercontent.com/p/AF1QipM8cKK0SNNy706riWKQFbt3sTQVOvJxh-V_Ogdd=w408-h725-k-no;12 to 10:30 PM;12 to 10:30 PM;12 to 10:30 PM;12 to 10:30 PM;12 to 10:30 PM;12 to 10:30 PM;12 to 10:30 PM;false;Tepat yang menyediakan berbagai jenis minuman dan makanan
Santap Seruput Cafe;Cafe;Perum Griya Shanta, Blk. E No.332, Mojolangu, Lowokwaru, Malang City, East Java 65141, Indonesia;/g/11wqh9kn8h;-7,9424565;112,6237176;Mojolangu, Lowokwaru;3;5;https://www.google.com/maps/search/?api=1&query=Santap%20Seruput%20Cafe&query_place_id=ChIJhUCxBwAp1i0Ro8tfpj400AU;https://lh5.googleusercontent.com/p/AF1QipMj7CmviwU1h-2x7giVqXgBxVwhrIfF2eIPfdlJ=w408-h725-k-no;9 AM to 10 PM;9 AM to 10 PM;9 AM to 10 PM;9 AM to 10 PM;9 AM to 10 PM;9 AM to 10 PM;9 AM to 10 PM;false;Tepat yang menyediakan berbagai jenis minuman dan makanan
BaleMang Cafe Malang;Cafe;Jl. Soekarno Hatta No.A5, Mojolangu, Kec. Lowokwaru, Kota Malang, Jawa Timur 65141, Indonesia;/g/11g_zkkwff;-7,9393751;112,6312001;Mojolangu, Lowokwaru;3;4,3;https://www.google.com/maps/search/?api=1&query=BaleMang%20Cafe%20Malang&query_place_id=ChIJh4pcsU4p1i0R_qAUA65_4vA;https://lh5.googleusercontent.com/p/AF1QipObbQHCRMM1E4v6VJ4kcw_VFZQgcGT0xMYUvtZc=w408-h306-k-no;11 AM to 11 PM;Closed;11 AM to 11 PM;11 AM to 11 PM;11 AM to 11 PM;11 AM to 11 PM;11 AM to 11 PM;false;Tepat yang menyediakan berbagai jenis minuman dan makanan
Kedaishi Ramen - Soekarno Hatta;Ramen restaurant;Jl. Trs.Candi Mendut No.F4, Mojolangu, Kec. Lowokwaru, Kota Malang, Jawa Timur 65142, Indonesia;/g/11q4gs39vm;-7,9396961;112,6251947;Mojolangu, Lowokwaru;660;4,8;https://www.google.com/maps/search/?api=1&query=Kedaishi%20Ramen%20-%20Soekarno%20Hatta&query_place_id=ChIJtZhJn1op1i0R79gBnbl1aIg;https://lh5.googleusercontent.com/p/AF1QipPFDxITSQzwGy4BbmFamWmNSheG-E8WTzaS0gm8=w408-h544-k-no;11 AM to 9 PM;11 AM to 9 PM;11 AM to 9 PM;11 AM to 9 PM;11 AM to 10 PM;11 AM to 10 PM;11 AM to 10 PM;false;Tempat makan meyediakan berbgai jenis ramen dan masakan khas Jepang lainnya
Ryuusei Japan;Japanese restaurant;3J39+2RR, Jl. Semanggi Timur, Jatimulyo, Kec. Lowokwaru, Kota Malang, Jawa Timur 65141, Indonesia;/g/11rfphdmhy;-7,9473938;112,6195131;Jatimulyo, Lowokwaru;98;4,6;https://www.google.com/maps/search/?api=1&query=Ryuusei%20Japan&query_place_id=ChIJ6XI8MEGDeC4RM-Bj-Oz37us;https://lh5.googleusercontent.com/p/AF1QipMm1LphpQSIW9zjwUdqCscwGgJOOsdQ4Cx1zfAN=w426-h240-k-no;11:30 AM to 11 PM;11:30 AM to 11 PM;11:30 AM to 11 PM;11:30 AM to 11 PM;11:30 AM to 11 PM;11:30 AM to 9 PM;11:30 AM to 11 PM;false;Tempat makan khas Jepang dengan suasanya seperti restoran di Jepang
Kopi Santoso;Coffee shop;Jl. Kalpataru No.4-a, Tulusrejo, Kec. Lowokwaru, Kota Malang, Jawa Timur 65141, Indonesia;/g/11mhw8t3ns;-7,9510727;112,6327763;Tulusrejo, Lowokwaru;77;4,8;https://www.google.com/maps/search/?api=1&query=Kopi%20Santoso&query_place_id=ChIJpW3xVUEp1i0RGvz3lXfSz20;https://lh5.googleusercontent.com/p/AF1QipPBfdxoc-rF7pcJYLrQZTAbATJP0iyOe44lnd0Y=w427-h240-k-no;9 AM to 11 PM;9 AM to 11 PM;9 AM to 11 PM;Closed;1 to 11 PM;9 AM to 11 PM;9 AM to 11 PM;false;Tepat yang menyediakan berbagai jenis minuman dan makanan
Marso;East Javanese restaurant;Jl. Cengkeh No.22 kav 1, Jatimulyo, Lowokwaru, Malang City, East Java 65141, Indonesia;/g/11f04ffr8n;-7,9465561;112,6230581;Jatimulyo, Lowokwaru;165;4,6;https://www.google.com/maps/search/?api=1&query=Marso&query_place_id=ChIJi4cOLiso1i0RgLPp8Ms_Cmc;https://lh5.googleusercontent.com/p/AF1QipMblL97hgHy0_DGvruyW_-hZwBgl2KO_Ez_rH94=w408-h306-k-no;6:30 AM to 9 PM;6:30 AM to 9 PM;6:30 AM to 9 PM;6:30 AM to 9 PM;6:30 AM to 9 PM;6:30 AM to 9 PM;6:30 AM to 9 PM;false;Tempat makan menyediakan menu khas Jawa Timur
Fast Food Restaurant;Restaurant;3J58+2HM, Jl. Pisang Kipas, Jatimulyo, Kec. Lowokwaru, Kota Malang, Jawa Timur 65141, Indonesia;/g/11v_40t3cc;-7,9424101;112,6164102;Jatimulyo, Lowokwaru;0;0;https://www.google.com/maps/search/?api=1&query=Fast%20Food%20Restaurant&query_place_id=ChIJR3kd0XSCeC4RoJLdmYTsJYo;https://streetviewpixels-pa.googleapis.com/v1/thumbnail?panoid=w5U05930xRYGLGvmoQkSvg&cb_client=search.gws-prod.gps&w=408&h=240&yaw=25.130224&pitch=0&thumbfov=100;;;;;;;;false;Tempat makan yang menyediakan berbagai macam menu makanan
fast Food Restaurant;Restaurant;Jl. Trs.Candi Mendut No.2B, Mojolangu, Kec. Lowokwaru, Kota Malang, Jawa Timur 65142, Indonesia;/g/11s0z2kkmp;-7,9404217;112,6267318;Mojolangu, Lowokwaru;0;0;https://www.google.com/maps/search/?api=1&query=fast%20Food%20Restaurant&query_place_id=ChIJHdV4Rucp1i0RwrsvJsk9Jd4;https://streetviewpixels-pa.googleapis.com/v1/thumbnail?panoid=oRn-x7E71tNWXeItjjjFHw&cb_client=search.gws-prod.gps&w=408&h=240&yaw=207.82234&pitch=0&thumbfov=100;;;;;;;;false;Tempat makan yang menyediakan berbagai macam menu makanan
Nasi Goreng Tuman dan Juice;Nasi goreng restaurant;Jl. Kertosentono No.99, Ketawanggede, Kec. Lowokwaru, Kota Malang, Jawa Timur 65145, Indonesia;/g/11hzn3rgy_;-7,949356;112,6123036;Ketawanggede, Lowokwaru;14;5;https://www.google.com/maps/search/?api=1&query=Nasi%20Goreng%20Tuman%20dan%20Juice&query_place_id=ChIJU6nU2uqDeC4RK3TeGddXUR4;https://lh5.googleusercontent.com/p/AF1QipMjduG818KJ31yh64DBd_dyAlPJrUcXOSTgbss_=w426-h240-k-no;11 AM to 11 PM;11 AM to 11 PM;11 AM to 11 PM;11 AM to 11 PM;11 AM to 11 PM;11 AM to 11 PM;11 AM to 11 PM;false;Tempat makan yang menyediakan berbagai macam menu nasi goreng dan jus
MOZANA;Nasi goreng restaurant;Jl. Papa Putih No.11a, Tulusrejo, Kec. Lowokwaru, Kota Malang, Jawa Timur 65141, Indonesia;/g/11pzkdz1xz;-7,942253;112,628195;Tulusrejo, Lowokwaru;2;5;https://www.google.com/maps/search/?api=1&query=MOZANA&query_place_id=ChIJ4YR3mu4p1i0RmAzaFVTggjw;https://streetviewpixels-pa.googleapis.com/v1/thumbnail?panoid=ineJfIrM9R9l4ejs2fNIng&cb_client=search.gws-prod.gps&w=408&h=240&yaw=26.54551&pitch=0&thumbfov=100;8 AM to 4 PM;8 AM to 4 PM;8 AM to 4 PM;8 AM to 4 PM;8 AM to 4 PM;8 AM to 4 PM;8 AM to 4 PM;false;Tempat makan yang menyediakan berbagai macam menu nasi goreng 
Yoshinoya Japanese Restaurant;Japanese restaurant;Ruko Taman Niaga, Jl. Soekarno Hatta, Jatimulyo, Kec. Lowokwaru, Kota Malang, Jawa Timur 65141, Indonesia;/g/11fjz13g39;-7,942906;112,6213516;Jatimulyo, Lowokwaru;1793;4,4;https://www.google.com/maps/search/?api=1&query=Yoshinoya%20Japanese%20Restaurant&query_place_id=ChIJy2XoJZ0p1i0RZAMhNb0t_aA;https://lh5.googleusercontent.com/p/AF1QipNbcSI117r2lCDCXpnM1f78iNyPGqcvxx6V9O4M=w426-h240-k-no;9 AM to 10 PM;9 AM to 10 PM;9 AM to 10 PM;9 AM to 10 PM;9 AM to 10 PM;9 AM to 10 PM;9 AM to 10 PM;false;Restoran khas Japan dengan menu autentik khas Jepang
Nasi Goreng 73;Nasi goreng restaurant;Jl. Kertosentono No.73, Ketawanggede, Kec. Lowokwaru, Kota Malang, Jawa Timur 65145, Indonesia;/g/11f2ckz3wr;-7,9485817;112,6100558;Ketawanggede, Lowokwaru;26;4,9;https://www.google.com/maps/search/?api=1&query=Nasi%20Goreng%2073&query_place_id=ChIJdzk_mHGCeC4R2MR9Nx3KQvM;https://lh5.googleusercontent.com/p/AF1QipMntNnXAIu9p4SCIjn6FfGTBd4Nl4hZU4EIwJRS=w408-h544-k-no;10:30 AM to 12 AM;10:30 AM to 12 AM;10:30 AM to 12 AM;10:30 AM to 12 AM;10:30 AM to 12 AM;10:30 AM to 12 AM;10:30 AM to 12 AM;false;Tempat makan yang menyediakan berbagai macam menu nasi goreng dengan rasa yang enak
Mr. Ni Meatball/Bakso Restaurant;Bakso restaurant;Jl. Dewandaru No.26, Jatimulyo, Kec. Lowokwaru, Kota Malang, Jawa Timur 65141, Indonesia;/g/11nxsy97rs;-7,9520254;112,6222571;Jatimulyo, Lowokwaru;533;4,7;https://www.google.com/maps/search/?api=1&query=Mr.%20Ni%20Meatball%2FBakso%20Restaurant&query_place_id=ChIJZV5K-Y0p1i0R6NomDDpLaEQ;https://lh5.googleusercontent.com/p/AF1QipPO7L6pDTzZA1E11I6B-65Pp3G1wJu69vjuAG9d=w408-h544-k-no;12 to 10 PM;12 to 10 PM;12 to 10 PM;12 to 10 PM;12 to 10 PM;12 to 10 PM;12 to 10 PM;false;Restoran Bakso khas malang
Ruang Rindu Kopi;Coffee shop;Jl. MT. Haryono No.17C, Dinoyo, Kec. Lowokwaru, Kota Malang, Jawa Timur 65144, Indonesia;/g/11f1kfq_y6;-7,9451334;112,6120065;Dinoyo, Lowokwaru;920;4,5;https://www.google.com/maps/search/?api=1&query=Ruang%20Rindu%20Kopi&query_place_id=ChIJ6ZjYVfWBeC4Rr1R39KSrSSk;https://lh5.googleusercontent.com/p/AF1QipM6n60OAxppPcvA_LaeHpYGSiaDqwYvrWsaNLqW=w408-h306-k-no;8 AM to 12 AM;8 AM to 12 AM;8 AM to 12 AM;8 AM to 12 AM;8 AM to 12 AM;8 AM to 12 AM;8 AM to 12 AM;false;Tepat yang menyediakan berbagai jenis minuman dan makanan
Jiwonggo Warung & Kafe Keluarga;Cafe;Jl. Setaman No.38, Lowokwaru, Kec. Lowokwaru, Kota Malang, Jawa Timur 65141, Indonesia;/g/11ry7k_fry;-7,9546031;112,6334444;Lowokwaru;134;4,9;https://www.google.com/maps/search/?api=1&query=Jiwonggo%20Warung%20%26%20Kafe%20Keluarga&query_place_id=ChIJo9bUKuQp1i0Rhzb2dKyggkI;https://lh5.googleusercontent.com/p/AF1QipOf5E8fPFYM1npRa5wyUfBHe8iHNM6f-WVRYpuI=w408-h306-k-no;11 AM to 9 PM;11 AM to 9 PM;11 AM to 9 PM;11 AM to 9 PM;11 AM to 9 PM;11 AM to 9 PM;1 to 9 PM;false;Tepat yang menyediakan berbagai jenis minuman dan makanan
By Coffee Soekarno Hatta;Kedai Kopi;Jl. Soekarno Hatta No.44, Jatimulyo, Kec. Lowokwaru, Kota Malang, Jawa Timur 65141, Indonesia;/g/11t0px14hn;-7,9437019;112,6205139;Jatimulyo, Kecamatan Lowokwaru;12;5;https://www.google.com/maps/search/?api=1&query=By%20Coffee%20Soekarno%20Hatta&query_place_id=ChIJvdhd7qEp1i0R1lZuvpsy5w0;https://lh5.googleusercontent.com/p/AF1QipNgrI7vOLZMZiG-Ey3OR_Faan8DhOdaN3jawmgY=w408-h544-k-no;13.00 to 22.00;13.00 to 22.00;13.00 to 22.00;13.00 to 22.00;13.00 to 22.00;13.00 to 22.00;13.00 to 22.00;false;Tepat yang menyediakan berbagai jenis minuman dan makanan
Hambee coffee;Kedai Kopi;Jl. Candi Mendut Bar. No.c7, Mojolangu, Kec. Lowokwaru, Kota Malang, Jawa Timur 65142, Indonesia;/g/11vzdk7kd_;-7,9390903;112,6272187;Mojolangu, Kecamatan Lowokwaru;31;4,9;https://www.google.com/maps/search/?api=1&query=Hambee%20coffee&query_place_id=ChIJ92YRLQAp1i0R_sVfPRVgDb0;https://lh5.googleusercontent.com/p/AF1QipNZCa2xewrHX_GztCh-e-1gVHFcm-L3janYk2hU=w408-h544-k-no;;;;;;;;false;Tepat yang menyediakan berbagai jenis minuman dan makanan
Excelso - MLG Soekarno Hatta;Kedai Kopi;Jl. Soekarno Hatta No.7e, Jatimulyo, Kec. Lowokwaru, Kota Malang, Jawa Timur 65141, Indonesia;/g/11mv_cnj1v;-7,9476972;112,6173469;Jatimulyo, Kecamatan Lowokwaru;574;4,6;https://www.google.com/maps/search/?api=1&query=Excelso%20-%20MLG%20Soekarno%20Hatta&query_place_id=ChIJEz2Ilu6DeC4RA_8IHs8dZ60;https://lh5.googleusercontent.com/p/AF1QipOFkenPjY1y3OU0Hn5UxKI6-BJlzvQROD5cANxs=w408-h306-k-no;09.00 to 22.00;09.00 to 22.00;09.00 to 22.00;09.00 to 22.00;09.00 to 22.00;09.00 to 23.00;09.00 to 23.00;false;Tepat yang menyediakan berbagai jenis minuman baik kopi atau non kopi dengan tempat yang nyaman
Toko Kopi Makmur (Malang);Kedai Kopi;Jl. Cengkeh No.60 kav4, Jatimulyo, Kec. Lowokwaru, Kota Malang, Jawa Timur 65141, Indonesia;/g/11fkl2dqwj;-7,9456569;112,6208499;Jatimulyo, Kecamatan Lowokwaru;487;4,7;https://www.google.com/maps/search/?api=1&query=Toko%20Kopi%20Makmur%20(Malang)&query_place_id=ChIJP_2Hisgp1i0Rhwz7t64_oEY;https://lh5.googleusercontent.com/p/AF1QipOom3OYkn7m4ArxNvqvgGFNXea-EMUa7Qy-HoTN=w408-h544-k-no;08.00 to 23.00;08.00 to 23.00;08.00 to 23.00;08.00 to 23.00;08.00 to 23.00;08.00 to 23.00;08.00 to 23.00;false;Tepat yang menyediakan berbagai jenis minuman kopi
Ethnica coffee;Kedai Kopi;Jl. Mayjend Panjaitan No.135, RW.02, Penanggungan, Kec. Klojen, Kota Malang, Jawa Timur 65113, Indonesia;/g/11fqxwf9cp;-7,954408;112,620156;Penanggungan, Kecamatan Klojen;66;4,7;https://www.google.com/maps/search/?api=1&query=Ethnica%20coffee&query_place_id=ChIJn0STXZ0p1i0R3POthWhZQlE;https://lh5.googleusercontent.com/p/AF1QipMFAzclHYi5ohGOkQfTfOkyN5tw8AhrEvbPVsVV=w408-h544-k-no;;;;;;;;false;Tepat yang menyediakan berbagai jenis minuman dan makanan
Joe Reagan Coffee & art;Kedai Kopi;Jalan Bantaran Indah Nomor:18, RT.04/RW.13, Tulusrejo, Kec. Lowokwaru, Kota Malang, Jawa Timur 65141, Indonesia;/g/11mhb8l9rh;-7,946725;112,6325597;Tulusrejo, Kecamatan Lowokwaru;22;4,9;https://www.google.com/maps/search/?api=1&query=Joe%20Reagan%20Coffee%20%26%20art&query_place_id=ChIJOW2MfM8p1i0RuTGrOme_9mI;https://lh5.googleusercontent.com/p/AF1QipNsD1O6uDU-xDf8l_oc8i6pOqREqzJkVgAhrMvE=w426-h240-k-no;09.00 to 00.00;09.00 to 00.00;09.00 to 00.00;09.00 to 00.00;09.00 to 00.00;09.00 to 00.00;Buka 24 jAM;false;Tepat yang menyediakan berbagai jenis minuman dan makanan dengan tempat yang nyaman
Agoona Space, Coffee and Eatery;Kedai Kopi;Jl. Cengger Ayam I, Tulusrejo, Kec. Lowokwaru, Kota Malang, Jawa Timur 65141, Indonesia;/g/11vbx3147b;-7,945631;112,6301127;Tulusrejo, Kecamatan Lowokwaru;42;4,8;https://www.google.com/maps/search/?api=1&query=Agoona%20Space%2C%20Coffee%20and%20Eatery&query_place_id=ChIJ60Na99Mp1i0RsBGWLkXRI8w;https://lh5.googleusercontent.com/p/AF1QipOMtu7rZWusGbOOVk5jfMvc9FWFQBqRiGlOo84_=w426-h240-k-no;07.00 to 22.00;12.00 to 22.00;12.00 to 22.00;12.00 to 22.00;12.00 to 22.00;13.00 to 23.00;07.00 to 23.00;false;Tepat yang menyediakan berbagai jenis minuman dan makanan berat atau ringan
Sabi Coffee Habit;Kedai Kopi;Jl. Kedawung No.63, Tulusrejo, Kec. Lowokwaru, Kota Malang, Jawa Timur 65141, Indonesia;/g/11p5k5g_qr;-7,9524501;112,6353144;Tulusrejo, Kecamatan Lowokwaru;30;4,9;https://www.google.com/maps/search/?api=1&query=Sabi%20Coffee%20Habit&query_place_id=ChIJ_f-XC8mDeC4RNSGiOOlM_Lo;https://lh5.googleusercontent.com/p/AF1QipO_gMIdTX0-Wh55DKHASHN6cPy2dlpH1A13lahd=w408-h306-k-no;10.00 to 23.30;10.00 to 23.30;10.00 to 23.30;10.00 to 23.30;10.00 to 23.30;10.00 to 23.30;10.00 to 23.30;false;Tepat yang menyediakan berbagai jenis minuman dan makanan
RILO Coffee and Space;Kedai Kopi;Jatimulyo, Kec. Lowokwaru, Kota Malang, Jawa Timur 65141, Indonesia;/g/11sprv1x2v;-7,9467654;112,6175273;Jatimulyo, Kecamatan Lowokwaru;209;4,6;https://www.google.com/maps/search/?api=1&query=RILO%20Coffee%20and%20Space&query_place_id=ChIJc4VXMvyDeC4RgLBWdx9t8hI;https://lh5.googleusercontent.com/p/AF1QipMGW0s0Vil31tQL-05iVfocexcw9gztKA835RWl=w408-h543-k-no;08.30 to 17.00;08.30 to 17.00;08.30 to 17.00;08.30 to 17.00;08.30 to 17.00;08.30 to 17.00;08.30 to 17.00;false;Tepat yang menyediakan berbagai jenis minuman dan makanan
Tomoro Coffe - Monumen Pesawat Suhat;Kedai Kopi;Jl. Soekarno Hatta No.90, Mojolangu, Kec. Lowokwaru, Kota Malang, Jawa Timur 65141, Indonesia;/g/11y76rtjmb;-7,9380305;112,6289304;Mojolangu, Kecamatan Lowokwaru;172;5;https://www.google.com/maps/search/?api=1&query=Tomoro%20Coffe%20-%20Monumen%20Pesawat%20Suhat&query_place_id=ChIJIVufQZODeC4RVtrP5HNZZig;https://lh5.googleusercontent.com/p/AF1QipObwLBwQoANuaQhADAs4IZf1lr5HhJs5cODlYns=w408-h544-k-no;08.00 to 23.00;08.00 to 23.00;08.00 to 23.00;08.00 to 23.00;08.00 to 23.00;08.00 to 23.00;08.00 to 23.00;false;Tepat yang menyediakan berbagai jenis minuman baik kopi atau non kopi dengan tempat yang nyaman
Kephet Coffee;Kedai Kopi;Jl. Mayjend Panjaitan No.121, Jatimulyo, Kec. Lowokwaru, Kota Malang, Jawa Timur 65141, Indonesia;/g/11cpgclj5d;-7,9548125;112,620558;Jatimulyo, Kecamatan Lowokwaru;12;5;https://www.google.com/maps/search/?api=1&query=Kephet%20Coffee&query_place_id=ChIJZbn4enaCeC4RMX_85TmAV9Q;https://lh5.googleusercontent.com/p/AF1QipOFaaK9TBuzShhP6nzVvKvt-MYsWCrfo0svqRm0=w408-h544-k-no;Buka 24 jAM;Buka 24 jAM;Buka 24 jAM;Buka 24 jAM;Buka 24 jAM;Buka 24 jAM;Buka 24 jAM;false;Tepat yang menyediakan berbagai jenis minuman dan makanan
Coffee;Kedai Kopi;Jl. Taman Borobudur Indah No.c16, Mojolangu, Kec. Lowokwaru, Kota Malang, Jawa Timur 65142, Indonesia;/g/11j48drp0b;-7,9376363;112,6327293;Mojolangu, Kecamatan Lowokwaru;1;5;https://www.google.com/maps/search/?api=1&query=Coffee&query_place_id=ChIJNWRxT9Ep1i0R2BG6FWReVSc;https://streetviewpixels-pa.googleapis.com/v1/thumbnail?panoid=46cfhDKKKLI4VstZdt-8vQ&cb_client=search.gws-prod.gps&w=408&h=240&yaw=334.9541&pitch=0&thumbfov=100;;;;;;;;false;Tepat yang menyediakan berbagai jenis minuman dan makanan
KYND, Coffee & Eatery;Kedai Kopi;Jl. Sri Rahayu No.8, Jatimulyo, Kec. Lowokwaru, Kota Malang, Jawa Timur 65141, Indonesia;/g/11rxxz8smc;-7,9501063;112,6325028;Jatimulyo, Kecamatan Lowokwaru;156;4,7;https://www.google.com/maps/search/?api=1&query=KYND%2C%20Coffee%20%26%20Eatery&query_place_id=ChIJR6FzII8p1i0RCpKULjG6yz8;https://lh5.googleusercontent.com/p/AF1QipOw0pfx2XruVEjP_74gVDwa-GoLqspsdYW1_4c3=w408-h544-k-no;12.00 to 23.00;12.00 to 23.00;12.00 to 23.00;12.00 to 23.00;12.00 to 23.00;12.00 to 23.00;12.00 to 23.00;false;Tepat yang menyediakan berbagai jenis minuman dan makanan
SaySam Coffee Milk;Kedai Kopi;Jl. Kendalsari No.32, RW.02, Tulusrejo, Kec. Lowokwaru, Kota Malang, Jawa Timur 65141, Indonesia;/g/11kgqygpn8;-7,9452867;112,6261433;Tulusrejo, Kecamatan Lowokwaru;1;5;https://www.google.com/maps/search/?api=1&query=SaySam%20Coffee%20Milk&query_place_id=ChIJ6fwk2Kop1i0RBPOJ8c4XlsI;https://lh5.googleusercontent.com/p/AF1QipP3WmdKyBZnYKTObKDNu2sKaydsK5nwlYFQxJ7y=w408-h544-k-no;09.00 to 23.00;09.00 to 23.00;09.00 to 23.00;09.00 to 23.00;09.00 to 23.00;09.00 to 23.00;09.00 to 23.00;false;Tepat yang menyediakan berbagai jenis minuman kopi
8 Eight Coffee And Eatery;Coffee shop;Jl. Candi Waringin Lawang No.14, Mojolangu, Kec. Blimbing, Kota Malang, Jawa Timur 65142, Indonesia;/g/11vb0xr8m9;-7,9420032;112,6381832;Mojolangu, Blimbing;10;4,9;https://www.google.com/maps/search/?api=1&query=8%20Eight%20Coffee%20And%20Eatery&query_place_id=ChIJ1fjdwTYp1i0R4sMv4HDPTMQ;https://lh5.googleusercontent.com/p/AF1QipNoYT78Fp93G9Rv0WUF8u7tKEnJU3lziS6rfHde=w408-h544-k-no;8 AM to 10 PM;8 AM to 10 PM;8 AM to 10 PM;8 AM to 10 PM;8 AM to 10 PM;8 AM to 11 PM;8 AM to 11 PM;false;Tepat yang menyediakan berbagai jenis minuman dan makanan dengan tempat yang nyaman
Motiv Coffee;Coffee shop;Ruko Istana Dinoyo, B-8, Dinoyo, Lowokwaru, Malang City, East Java 65145, Indonesia;/g/11vb5xlxmp;-7,9462133;112,6131483;Dinoyo, Lowokwaru;219;4,7;https://www.google.com/maps/search/?api=1&query=Motiv%20Coffee&query_place_id=ChIJV5PhQ26DeC4ROqkU9OH2myg;https://lh5.googleusercontent.com/p/AF1QipOeWvvH0nHEW_tRsHPL_7korbtdWtaioMlp6qsU=w408-h272-k-no;10 AM to 11 PM;10 AM to 11 PM;10 AM to 11 PM;10 AM to 11 PM;10 AM to 11 PM;10 AM to 11 PM;10 AM to 11 PM;false;Tepat yang menyediakan berbagai jenis minuman dan makanan
Gutenham Coffee House;Coffee shop;Jl. Mt Haryono 9 No.332, Dinoyo, Kec. Lowokwaru, Kota Malang, Jawa Timur 65144, Indonesia;/g/11fk1bqt58;-7,9426098;112,6115447;Dinoyo, Lowokwaru;414;4,6;https://www.google.com/maps/search/?api=1&query=Gutenham%20Coffee%20House&query_place_id=ChIJA3EQUzGDeC4RHm2PB5ZnM14;https://lh5.googleusercontent.com/p/AF1QipNE0yYVAHlmjd6ooRNKdsHZMp2_XsIUCECU5XbE=w408-h544-k-no;10 AM to 12 AM;10 AM to 12 AM;10 AM to 12 AM;10 AM to 12 AM;1 PM to 12 AM;10 AM to 12 AM;10 AM to 12 AM;false;Tepat yang menyediakan berbagai jenis minuman kopi dengan suasana tempat yang nyaman
Handall Coffee;Coffee shop;Jl. Semanggi Timur No.7, Jatimulyo, Kec. Lowokwaru, Kota Malang, Jawa Timur 65141, Indonesia;/g/11rr5jjkzz;-7,9475829;112,6203338;Jatimulyo, Lowokwaru;1322;4,6;https://www.google.com/maps/search/?api=1&query=Handall%20Coffee&query_place_id=ChIJ1QgH8M8p1i0Ryni0LfxFzFc;https://lh5.googleusercontent.com/p/AF1QipMPXNi9kH5PmunpXKaLXeUrLc9Xm_VAE3giB8PT=w408-h544-k-no;6 AM to 10 PM;6 AM to 10 PM;6 AM to 10 PM;6 AM to 10 PM;6 AM to 10 PM;6 AM to 10 PM;6 AM to 10 PM;false;Tepat yang menyediakan berbagai jenis minuman dan makanan
Vosco Coffee;Coffee shop;Jl. Borobudur No.27A, Mojolangu, Kec. Lowokwaru, Kota Malang, Jawa Timur 65142, Indonesia;/g/11b6v9q4sc;-7,940185;112,637716;Mojolangu, Lowokwaru;1966;4,5;https://www.google.com/maps/search/?api=1&query=Vosco%20Coffee&query_place_id=ChIJaUt29-kp1i0RKeDy8jqRc8U;https://lh5.googleusercontent.com/p/AF1QipMOLrLRHaqwm-YUVr7Sy23sZYtXYzQfM5OIGURK=w408-h306-k-no;7 AM to 10:30 PM;8 AM to 10:30 PM;7 AM to 10:30 PM;7 AM to 10:30 PM;7 AM to 10:30 PM;7 AM to 10:30 PM;7 AM to 10:30 PM;false;Tepat yang menyediakan berbagai jenis minuman dan makanan
Laughing coffee & kamsia boba;Coffee shop;Jl. Bantaran 1 No.1, RW.02, Purwantoro, Kec. Blimbing, Kota Malang, Jawa Timur 65141, Indonesia;/g/11lllq6_dh;-7,9503955;112,6380428;Purwantoro, Blimbing;2;5;https://www.google.com/maps/search/?api=1&query=Laughing%20coffee%20%26%20kamsia%20boba&query_place_id=ChIJPZIVGKkp1i0RJk68iREdn1A;https://lh5.googleusercontent.com/p/AF1QipM0DiAnfDUddodd8PVtW0AzL4QCc0UTSgo0QZhi=w426-h240-k-no;12 to 11 AM, 1 to 11 PM;1 to 11 PM;1 to 11 PM;1 to 11 PM;1 to 11 PM;1 to 11 PM;1 PM to 12 AM;false;Tepat yang menyediakan berbagai jenis minuman kopi dan boba
Point Coffee;Coffee shop;Jl. Cengger Ayam DLM No.39-43, Tulusrejo, Kec. Lowokwaru, Kota Malang, Jawa Timur 65141, Indonesia;/g/11svx9pxyg;-7,9465345;112,6322661;Tulusrejo, Lowokwaru;9;4,1;https://www.google.com/maps/search/?api=1&query=Point%20Coffee&query_place_id=ChIJzdt17tgp1i0RdSCbHxDXm_w;https://lh5.googleusercontent.com/p/AF1QipMP0iYpLRT0OpmLExFBsJk1OoyBOpDlhfW5Zyk0=w408-h284-k-no;;;;;;;;false;Tepat yang menyediakan berbagai jenis minuman 
Moxa House;Coffee shop;Jl. Soekarno Hatta Indah IV No.1, Mojolangu, Kec. Lowokwaru, Kota Malang, Jawa Timur 65142, Indonesia;/g/11t9q40hg2;-7,9396108;112,6289076;Mojolangu, Lowokwaru;39;5;https://www.google.com/maps/search/?api=1&query=Moxa%20House&query_place_id=ChIJJV6w6LUp1i0RiK7NmNiQnLg;https://lh5.googleusercontent.com/p/AF1QipNCp_u3fhpf4tx2-9xpgeGMFzMoliJS5_G-SJO_=w408-h725-k-no;12 to 10 PM;12 to 10 PM;12 to 10 PM;12 to 10 PM;12 to 10 PM;12 to 10 PM;12 to 10 PM;false;Tepat yang menyediakan berbagai jenis minuman dan makanan
The Gade Coffee by Pegadaian;Coffee shop;Jl. Borobudur No.10, Blimbing, Kec. Blimbing, Kota Malang, Jawa Timur 65142, Indonesia;/g/11s0z8__8c;-7,9398067;112,6378863;Blimbing;18;4,7;https://www.google.com/maps/search/?api=1&query=The%20Gade%20Coffee%20by%20Pegadaian&query_place_id=ChIJX_tK8wAp1i0RCcCrC_yBils;https://lh5.googleusercontent.com/p/AF1QipONlF5LIZyMpoiIHzzxzqFLKCY5iAF28OM-2qGW=w426-h240-k-no;;;;;;;;false;Tepat yang menyediakan berbagai jenis minuman dan makanan dengan suasana yang nyaman
Food Court Melati;Pujasera;Jl. Melati No.10, RW.02, Lowokwaru, Kec. Lowokwaru, Kota Malang, Jawa Timur 65141, Indonesia;/g/11h5rxkb2d;-7,95575;112,6317052;Lowokwaru, Kecamatan Lowokwaru;1216;4,6;https://www.google.com/maps/search/?api=1&query=Food%20Court%20Melati&query_place_id=ChIJIV-wHqUp1i0RbC-TuPFaGqY;https://lh5.googleusercontent.com/p/AF1QipNnO4Xbfd-06593xnLa1dyVGwnKEkU1lo4OVd4B=w408-h306-k-no;08.00 to 21.00;08.00 to 21.00;08.00 to 21.00;08.00 to 21.00;08.00 to 21.00;08.00 to 21.00;08.00 to 21.00;false;Food court yang menyediakan berbagai gerai yang menjual aneka makanan
SHI Garden Food Court;Pujasera;Jl. Soekarno Hatta Indah No.20, Mojolangu, Kec. Lowokwaru, Kota Malang, Jawa Timur 65141, Indonesia;/g/11rk4lvd3b;-7,9407155;112,6295524;Mojolangu, Kecamatan Lowokwaru;4;4,8;https://www.google.com/maps/search/?api=1&query=SHI%20Garden%20Food%20Court&query_place_id=ChIJJ0ylu3wp1i0Rg2foL2zCSvg;https://lh5.googleusercontent.com/p/AF1QipOA9g4Qh_Ifn3zVtiEyLnTVcIyEUo2xJcg6VjQA=w408-h408-k-no;06.00 to 23.00;Buka 24 jAM;Buka 24 jAM;Buka 24 jAM;Buka 24 jAM;Buka 24 jAM;Buka 24 jAM;false;Food court yang menyediakan berbagai gerai yang menjual aneka makanan
Pujasera AREMA;Pujasera;Jl. Bunga Srigading No.23, Jatimulyo, Kec. Lowokwaru, Kota Malang, Jawa Timur 65141, Indonesia;/g/11f34_lb6j;-7,9507868;112,6189454;Jatimulyo, Kecamatan Lowokwaru;24;4,4;https://www.google.com/maps/search/?api=1&query=Pujasera%20AREMA&query_place_id=ChIJE19J3XeCeC4RMxaMlvCgKKI;https://lh5.googleusercontent.com/p/AF1QipOGEoo0dJA1AxgBvzANp98z1R8lCv7raQLvlmX-=w426-h240-k-no;06.00 to 23.00;06.00 to 23.00;06.00 to 23.00;06.00 to 23.00;06.00 to 23.00;06.00 to 23.00;06.00 to 23.00;false;tempat yang menyediakan berbagai gerai yang menjual aneka makanan
Taman Pujasera & Cafe;Pujasera;Jl. Dewandaru No.A1, Jatimulyo, Kec. Lowokwaru, Kota Malang, Jawa Timur 65141, Indonesia;/g/11fwjrnwl4;-7,9511109;112,6228127;Jatimulyo, Kecamatan Lowokwaru;1;5;https://www.google.com/maps/search/?api=1&query=Taman%20Pujasera%20%26%20Cafe&query_place_id=ChIJH8zzxJAp1i0RKbL75mO0reg;https://lh5.googleusercontent.com/p/AF1QipOGhxd8_Jm3ZsPVWmpkmwrN90pwXIevS0G_uh5C=w408-h306-k-no;Buka 24 jAM;Buka 24 jAM;Buka 24 jAM;Buka 24 jAM;Buka 24 jAM;Buka 24 jAM;Buka 24 jAM;false;Tempat yang menyediakan berbagai gerai yang menjual aneka makanan
PUJASERA PKL UB;Pujasera;2JW8+VP7, Jl. MT. Haryono, Penanggungan, Kec. Klojen, Kota Malang, Jawa Timur 65145, Indonesia;/g/11b6xhrhfb;-7,9528357;112,6167955;Penanggungan, Kecamatan Klojen;48;4,4;https://www.google.com/maps/search/?api=1&query=PUJASERA%20PKL%20UB&query_place_id=ChIJuXGuKniCeC4R6Tr40hb58io;https://lh5.googleusercontent.com/p/AF1QipPgqNQoo3wUzJ7NavkEb6OYYK60vqNBRiRoRWA=w408-h306-k-no;07.00 to 21.00;07.00 to 21.00;07.00 to 21.00;07.00 to 21.00;07.00 to 21.00;07.00 to 21.00;07.00 to 21.00;false;Food court yang menyediakan berbagai gerai yang menjual aneka makanan yang ada didalam universitas brawijaya
Food Court Dinoyo Mall;Pujasera;Dinoyo, Kec. Lowokwaru, Kota Malang, Jawa Timur 65144, Indonesia;/g/11hbn3kt3r;-7,9377731;112,6071891;Dinoyo, Kecamatan Lowokwaru;21;4,6;https://www.google.com/maps/search/?api=1&query=Food%20Court%20Dinoyo%20Mall&query_place_id=ChIJkaBNGxKCeC4RX_6tBqMJaRg;https://lh5.googleusercontent.com/p/AF1QipP-4vTYtUXLYYMF0sJdbkw7f7HX8ZzAK8qc8mYo=w408-h306-k-no;10.00 to 21.00;10.00 to 21.00;10.00 to 21.00;10.00 to 21.00;10.00 to 21.00;10.00 to 21.00;10.00 to 21.00;false;Food court yang menyediakan berbagai gerai yang menjual aneka makanan berletak di dalam mall
Pujasera Soekarno-Hatta Kota Malang;Pujasera;Jatimulyo, Kec. Lowokwaru, Kota Malang, Jawa Timur 65141, Indonesia;/g/11lg2fwkt1;-7,9451424;112,6187139;Jatimulyo, Kecamatan Lowokwaru;13;4,6;https://www.google.com/maps/search/?api=1&query=Pujasera%20Soekarno-Hatta%20Kota%20Malang&query_place_id=ChIJvQ8B7C-DeC4Rqtj2QQlm5jY;https://lh5.googleusercontent.com/p/AF1QipMwhV_9Cr-rwoVW3evF1EBEreQUs6lxTqYwY1OT=w426-h240-k-no;;;;;;;;false;Food court yang menyediakan berbagai gerai yang menjual aneka makanan
PUJASERA UB (Universitas Brawijaya);Pujasera;2JV8+8V9, Jl. Veteran, Penanggungan, Kec. Klojen, Kota Malang, Jawa Timur 65145, Indonesia;/g/11b6v03kvc;-7,9567119;112,6172286;Penanggungan, Kecamatan Klojen;360;4,5;https://www.google.com/maps/search/?api=1&query=PUJASERA%20UB%20(Universitas%20Brawijaya)&query_place_id=ChIJiWSs23iCeC4RXbhDEzKfRSU;https://lh5.googleusercontent.com/p/AF1QipNq4OMZ8P7y_mkwCfZcBMeC4AcgAP4yXBFBvENq=w408-h306-k-no;07.00 to 23.00;07.00 to 23.00;07.00 to 23.00;07.00 to 23.00;07.00 to 23.00;07.00 to 23.00;07.00 to 23.00;false;Food court yang menyediakan berbagai gerai yang menjual aneka makanan
pujasera umik;Pujasera;Jl. Kerto Raharjo No.28, RT.05/RW.01, Ketawanggede, Kec. Lowokwaru, Kota Malang, Jawa Timur 65144, Indonesia;/g/11fgm6ydwv;-7,9461421;112,6109769;Ketawanggede, Kecamatan Lowokwaru;24;4,6;https://www.google.com/maps/search/?api=1&query=pujasera%20umik&query_place_id=ChIJ69uvlgqDeC4RhjxqVWRIlBU;https://lh5.googleusercontent.com/p/AF1QipMhCOK726ScX-ybeDkmO-VF0rzNxyF6FTQs-Dw=w408-h306-k-no;Buka 24 jAM;Buka 24 jAM;Buka 24 jAM;Buka 24 jAM;Buka 24 jAM;Buka 24 jAM;Buka 24 jAM;false;Food court yang menyediakan berbagai gerai yang menjual aneka makanan
Kantin Griya Universitas Brawijaya;Pujasera;2JW8+F9G, Ketawanggede, Kec. Lowokwaru, Kota Malang, Jawa Timur 65113, Indonesia;/g/11fzdzzjd7;-7,9538126;112,6159378;Ketawanggede, Kecamatan Lowokwaru;64;4,4;https://www.google.com/maps/search/?api=1&query=Kantin%20Griya%20Universitas%20Brawijaya&query_place_id=ChIJ-73FunmCeC4R9DRBzVQyy74;https://lh5.googleusercontent.com/p/AF1QipOO2BRonrFzQj1f16MYS8kOeiepty8I-uRijvd3=w408-h605-k-no;06.00 to 20.00;06.00 to 20.00;06.00 to 20.00;06.00 to 20.00;06.00 to 20.00;06.00 to 20.00;06.00 to 20.00;false;tempat makan yang menyediakan berbagai menu makanan
Pujasera Empat Belas;Pujasera;2JV9+H3Q, Jl. Veteran, Penanggungan, Kec. Klojen, Kota Malang, Jawa Timur 65145, Indonesia;/g/11b6v3n16y;-7,9560359;112,617749;Penanggungan, Kecamatan Klojen;2;4;https://www.google.com/maps/search/?api=1&query=Pujasera%20Empat%20Belas&query_place_id=ChIJS_jjwniCeC4R_vWBpaupxQU;https://lh3.googleusercontent.com/gps-proxy/ALd4DhHpJ-bpAQJFr4Asw0rgmEOY_DSTj9cSnmq6sCMBFXhXU2Rfq7d66mn4QPSDIThhbtbKkj98Fn2Y7iIoqe-fuAB28b_KyEeaYM9m1wbqk9vJh4ePW9Zhe57-XktwUMsCqASRndNMqCZDzcVSrLtxatiaT3RF4BMk4X_9F1I0_JHqZBqsvNwxM5KE88CPZ6eKaTYs2w=w426-h240-k-no;Buka 24 jAM;Buka 24 jAM;Buka 24 jAM;Buka 24 jAM;Buka 24 jAM;Buka 24 jAM;Buka 24 jAM;false;Tempat yang menyediakan berbagai gerai yang menjual aneka makanan
KeTimor Food Court;Pujasera;3J7F+V4R, Jl. Puncak Borobudur, Mojolangu, Kec. Lowokwaru, Kota Malang, Jawa Timur 65142, Indonesia;/g/11g2xn3sf2;-7,9352628;112,6227803;Mojolangu, Kecamatan Lowokwaru;109;4,6;https://www.google.com/maps/search/?api=1&query=KeTimor%20Food%20Court&query_place_id=ChIJy5Xkv9kp1i0RTCxgnWGWAEE;https://lh5.googleusercontent.com/p/AF1QipOpXPLsCHnJb0adPn39039qnbVB_fcRTqukasKi=w408-h306-k-no;07.00 to 16.00;07.00 to 16.00;07.00 to 16.00;07.00 to 16.00;07.00 to 16.00;Tutup;07.00 to 16.00;false;Food court yang menyediakan berbagai gerai yang menjual aneka makanan
Food Court Soekarno Hatta;Restoran;3J7G+4RP, Jl. Soekarno Hatta, Mojolangu, Kec. Lowokwaru, Kota Malang, Jawa Timur 65141, Indonesia;/g/11s3qhglcf;-7,9371658;112,6270703;Mojolangu, Kecamatan Lowokwaru;1;5;https://www.google.com/maps/search/?api=1&query=Food%20Court%20Soekarno%20Hatta&query_place_id=ChIJW21KEZAp1i0RwzyzWQ8Tjfw;https://streetviewpixels-pa.googleapis.com/v1/thumbnail?panoid=feyjLB-llDD8LIgeIoTKoA&cb_client=search.gws-prod.gps&w=408&h=240&yaw=20.195848&pitch=0&thumbfov=100;;;;;;;;false;Food court yang menyediakan berbagai gerai yang menjual aneka makanan
Ceica.;Coffee shop;Jl. Nusa Indah No.19, Lowokwaru, Kec. Lowokwaru, Kota Malang, Jawa Timur 65141, Indonesia;/g/11lncwm5b6;-7,9528423;112,6300728;Lowokwaru;25;4,6;https://www.google.com/maps/search/?api=1&query=Ceica.&query_place_id=ChIJnZDCFaUp1i0R6omb3Hq4Bts;https://lh5.googleusercontent.com/p/AF1QipOcvrGGlwcnA2Ld6a0aJt45Vb0SU7j5JhXO3DEL=w408-h306-k-no;10 AM to 10 PM;10 AM to 10 PM;10 AM to 10 PM;10 AM to 10 PM;10 AM to 11 PM;10 AM to 11 PM;10 AM to 11 PM;false;Tepat yang menyediakan berbagai jenis minuman 
Xtreme Foodcourt;Pujasera;Roko borobudur megah, Jl. Soekarno Hatta No.10 Kav 11, Mojolangu, Kec. Lowokwaru, Kota Malang, Jawa Timur 65162, Indonesia;/g/11w7dt5m6n;-7,9371597;112,6270844;Mojolangu, Kecamatan Lowokwaru;2;3,5;https://www.google.com/maps/search/?api=1&query=Xtreme%20Foodcourt&query_place_id=ChIJHyKHm20p1i0RO2snnePsc9Q;https://streetviewpixels-pa.googleapis.com/v1/thumbnail?panoid=feyjLB-llDD8LIgeIoTKoA&cb_client=search.gws-prod.gps&w=408&h=240&yaw=27.943571&pitch=0&thumbfov=100;08.00 to 21.00;08.00 to 21.00;08.00 to 21.00;08.00 to 21.00;08.00 to 21.00;08.00 to 21.00;08.00 to 21.00;false;Food court yang menyediakan berbagai gerai yang menjual aneka makanan
Kuma Bake and Coffee;Coffee shop;Kantin Fakultas Teknologi Pertanian Universitas Brawijaya, Jl. Veteran, Ketawanggede, Lowokwaru, Malang City, East Java 65145, Indonesia;/g/11qgcn3519;-7,9525869;112,6151727;Ketawanggede, Lowokwaru;61;5;https://www.google.com/maps/search/?api=1&query=Kuma%20Bake%20and%20Coffee&query_place_id=ChIJabL7fduDeC4RXK0Rlt5KQJ8;https://lh5.googleusercontent.com/p/AF1QipNu4bFFLe9cJZzktCKvg6mkvOsU7S9BkChQOWFi=w408-h543-k-no;7 AM to 5 PM;7 AM to 5 PM;7 AM to 5 PM;7 AM to 5 PM;7 AM to 5 PM;Closed;Closed;false;Tepat yang menyediakan berbagai kue dan berbagai jenis minuman 
Kopisoe - Malang Soeta;Coffee shop;Jl. Bunga Camalia, Jatimulyo, Kec. Lowokwaru, Kota Malang, Jawa Timur 65141, Indonesia;/g/11fmypz5r0;-7,9460829;112,6212439;Jatimulyo, Lowokwaru;34;4,3;https://www.google.com/maps/search/?api=1&query=Kopisoe%20-%20Malang%20Soeta&query_place_id=ChIJt29WbS6DeC4RhkEW6yKfsG8;https://lh5.googleusercontent.com/p/AF1QipPhggmHt9-rxNEblUxFPl_JHiCf6hA8b7ey2xvO=w408-h306-k-no;Open 24 hours;Open 24 hours;Open 24 hours;Open 24 hours;Open 24 hours;Open 24 hours;Open 24 hours;false;Tepat yang menyediakan berbagai jenis minuman 
Swetato;Pujasera;Jl. Dewandaru No.17, Jatimulyo, Kec. Lowokwaru, Kota Malang, Jawa Timur 65141, Indonesia;/g/11vszfnh60;-7,9488178;112,6239752;Jatimulyo, Kecamatan Lowokwaru;51;4,9;https://www.google.com/maps/search/?api=1&query=Swetato&query_place_id=ChIJrQK7VNsp1i0RIaMwUwBJdG0;https://lh5.googleusercontent.com/p/AF1QipNeurRJICtvBwDypVqMOrOy39xC8LpUPl1lVtIe=w408-h544-k-no;12.00 to 21.00;12.00 to 21.00;12.00 to 21.00;12.00 to 21.00;12.00 to 21.00;12.00 to 21.00;12.00 to 21.00;false;Tepat yang menyediakan berbagai jenis minuman 
Kafu Coffeshop Malang;Coffee shop;Jl. Bunga Kumis Kucing No.43b, Jatimulyo, Kec. Lowokwaru, Kota Malang, Jawa Timur 65141, Indonesia;/g/11s5c1jytf;-7,9515124;112,6209161;Jatimulyo, Lowokwaru;2;5;https://www.google.com/maps/search/?api=1&query=Kafu%20Coffeshop%20Malang&query_place_id=ChIJtcVnswkp1i0RBTq77MeHNis;https://streetviewpixels-pa.googleapis.com/v1/thumbnail?panoid=ECNho2p2yvHTbLdrAczy2g&cb_client=search.gws-prod.gps&w=408&h=240&yaw=182.5556&pitch=0&thumbfov=100;2 PM to 1 AM;2 PM to 1 AM;2 PM to 1 AM;2 PM to 1 AM;2 PM to 1 AM;2 PM to 1 AM;2 PM to 1 AM;false;Tepat yang menyediakan berbagai jenis minuman 
Pujasera Anugerah;Pujasera;Jl. Simpang Borobudur No.29, Mojolangu, Kec. Lowokwaru, Kota Malang, Jawa Timur 65142, Indonesia;/g/11f24try3x;-7,9382181;112,6371174;Mojolangu, Kecamatan Lowokwaru;148;4,5;https://www.google.com/maps/search/?api=1&query=Pujasera%20Anugerah&query_place_id=ChIJiSaleOkp1i0RrgELsOnJfKI;https://lh5.googleusercontent.com/p/AF1QipMMqV4YsMe6cc4MYy-KGpGBobrC1VDXhEfukL-B=w408-h544-k-no;09.00 to 19.30;09.00 to 19.30;09.00 to 19.30;09.00 to 19.30;09.00 to 19.30;09.00 to 19.30;09.00 to 19.30;false;Tempat yang menyediakan berbagai gerai yang menjual aneka makanan
kopi sesi;Coffee shop;2JX5+MRP, Jalan Raya Sawojajar Blok M, Ketawanggede, Lowokwaru, Malang City, East Java 65145, Indonesia;/g/11f4m6qhm6;-7,9507923;112,6095654;Ketawanggede, Lowokwaru;44;4,9;https://www.google.com/maps/search/?api=1&query=kopi%20sesi&query_place_id=ChIJA7rBI_Yp1i0RdNOahqPbqCE;https://lh5.googleusercontent.com/p/AF1QipN8Hfrx7qjjipxvYM4FPwxZ7-0PYcdS6jLl86_H=w408-h451-k-no;9 AM to 12 AM;9 AM to 12 AM;9 AM to 12 AM;9 AM to 12 AM;1 to 11 PM;9 AM to 12 AM;9 AM to 12 AM;false;Tempat yang menyediakan berbagai jenis minuman kopi
Pujasera 27;Pujasera;Jl. Candi Bajang Ratu 2 No.27, Purwantoro, Kec. Blimbing, Kota Malang, Jawa Timur 65126, Indonesia;/g/11fhv9k6hs;-7,9441853;112,6374186;Purwantoro, Kecamatan Blimbing;30;4,6;https://www.google.com/maps/search/?api=1&query=Pujasera%2027&query_place_id=ChIJu7tY-H4p1i0RIsdUSb_DbUg;https://lh5.googleusercontent.com/p/AF1QipPZPjABE0GjjD4e42lQrb7y20Kejqnz3-8QUHZP=w408-h306-k-no;09.00 to 22.00;09.00 to 22.00;09.00 to 22.00;09.00 to 22.00;09.00 to 22.00;09.00 to 22.00;09.00 to 22.00;false;Tempat yang menyediakan berbagai gerai yang menjual aneka makanan
Wenhua Coffee Shop;Coffee shop;Fakultas Ilmu Budaya, A, Jl. Veteran Jl. Universitas Brawijaya No.2, Ketawanggede, Kec. Lowokwaru, Kota Malang, Jawa Timur 65145, Indonesia;/g/11wbtjnsvs;-7,9526614;112,6122604;Ketawanggede, Lowokwaru;19;5;https://www.google.com/maps/search/?api=1&query=Wenhua%20Coffee%20Shop&query_place_id=ChIJo1LWZM6DeC4RJmzP0NTQ14w;https://lh5.googleusercontent.com/p/AF1QipOfrfD1kVDgYi0v3RDZHEG8QsyvzSyUMF2WxfVG=w408-h408-k-no;8 AM to 5 PM;8 AM to 5 PM;8 AM to 5 PM;8 AM to 5 PM;8 AM to 5 PM;Closed;Closed;false;Tempat yang menyediakan berbagai jenis minuman kopi
Foodcourt MOG;Restoran;Jl. Kawi No.24, Kauman, Kec. Klojen, Kota Malang, Jawa Timur 65116, Indonesia;/g/11f_p2rnzx;-7,9769385;112,6240616;Kauman, Kecamatan Klojen;3087;4,6;https://www.google.com/maps/search/?api=1&query=Foodcourt%20MOG&query_place_id=ChIJgYMbbCEo1i0RooqnLAcwTtI;https://lh5.googleusercontent.com/p/AF1QipNe1T2xmOO26vXQpTP5JZt-8hhyANWxMeAwoBuD=w408-h544-k-no;09.30 to 21.00;09.30 to 21.00;09.30 to 21.00;09.30 to 21.00;09.30 to 21.00;09.30 to 21.00;09.30 to 21.00;false;Tempat yang menyediakan berbagai gerai yang menjual aneka makanan berada didalam mall
Pujasera Kamila;Pujasera;Jl. Candi Panggung No.59, Mojolangu, Kec. Lowokwaru, Kota Malang, Jawa Timur 65142, Indonesia;/g/11jj1k3jt8;-7,9363611;112,6185889;Mojolangu, Kecamatan Lowokwaru;18;4,1;https://www.google.com/maps/search/?api=1&query=Pujasera%20Kamila&query_place_id=ChIJbbXlsA-DeC4Rm8sntiLbgeY;https://lh5.googleusercontent.com/p/AF1QipPiYJgL2jouh1saM8jQMNHSQPY2Cear6Sk913Hw=w408-h408-k-no;Buka 24 jAM;Buka 24 jAM;Buka 24 jAM;Buka 24 jAM;Buka 24 jAM;Buka 24 jAM;Buka 24 jAM;false;Tempat yang menyediakan berbagai gerai yang menjual aneka makanan
Poka Coffee;Coffee shop;Jl. Kalpataru No.26, Jatimulyo, Kec. Lowokwaru, Kota Malang, Jawa Timur 65141, Indonesia;/g/11vzcvzy0y;-7,9505913;112,6310678;Jatimulyo, Lowokwaru;11;5;https://www.google.com/maps/search/?api=1&query=Poka%20Coffee&query_place_id=ChIJiyKwaPwp1i0Rleqo0xk_n_o;https://lh5.googleusercontent.com/p/AF1QipOS8hU8g8OTFcdvQvJvgzfwPL7U4pIe6zvKnARN=w408-h544-k-no;4 to 11 PM;4 to 11 PM;4 to 11 PM;Closed;4 to 11 PM;4 to 11 PM;4 to 11 PM;false;Tempat yang menyediakan berbagai jenis minuman kopi
Pujasera 101;Pujasera;Jl. Simpang Borobudur No.19, Mojolangu, Kec. Lowokwaru, Kota Malang, Jawa Timur 65142, Indonesia;/g/11h0_7dh3f;-7,9387195;112,6369541;Mojolangu, Kecamatan Lowokwaru;5;5;https://www.google.com/maps/search/?api=1&query=Pujasera%20101&query_place_id=ChIJDSCDPmEp1i0R0Fo3Ywbmw54;https://lh5.googleusercontent.com/p/AF1QipNVfQtbFiP3PZh65ZWDhtSlgnTo1t4NjFgavqSp=w408-h480-k-no;11.00 to 17.00;11.00 to 21.00;11.00 to 21.00;11.00 to 21.00;11.00 to 21.00;11.00 to 21.00;11.00 to 21.00;false;Tempat yang menyediakan berbagai gerai yang menjual aneka makanan
Pujasera Semanggi;Food court;3J39+2R9, Penanggungan, Klojen, Malang City, East Java 65113, Indonesia;/g/11gdr9myg4;-7,9474611;112,6195966;Penanggungan, Klojen;156;4,3;https://www.google.com/maps/search/?api=1&query=Pujasera%20Semanggi&query_place_id=ChIJO_RNltUp1i0R1PPcMIpyZOQ;https://lh5.googleusercontent.com/p/AF1QipPM9LKl1VjIibpEVysDPZMPcCTZhIRiy5F9Zf3c=w426-h240-k-no;8 AM to 9 PM;8 AM to 9 PM;8 AM to 9 PM;8 AM to 9 PM;8 AM to 9 PM;8 AM to 9 PM;8 AM to 9 PM;false;Tempat yang menyediakan berbagai gerai yang menjual aneka makanan
Rumah makan;Food court;Jl. Gajayana No.538, Dinoyo, Kec. Lowokwaru, Kota Malang, Jawa Timur 65144, Indonesia;/g/11szc1r_nr;-7,944459;112,609921;Dinoyo, Lowokwaru;2;5;https://www.google.com/maps/search/?api=1&query=Rumah%20makan&query_place_id=ChIJrbQmahyDeC4RN60YS6_AE24;https://lh5.googleusercontent.com/p/AF1QipO8OE-DGNxtYkqd7PS_TGcXzEGm3M8GWcgbZApP=w408-h408-k-no;9 AM to 11 PM;9 AM to 11 PM;9 AM to 11 PM;9 AM to 11 PM;9 AM to 11 PM;9 AM to 11 PM;9 AM to 11 PM;false;Tempat yang menyediakan berbagai menu makan yang nikmat
Kiss Mie Malang;Food court;Jl. MT. Haryono No.82, RT.008/RW.002, Dinoyo, Kec. Lowokwaru, Kota Malang, Jawa Timur 65144, Indonesia;/g/11q4bgc5n8;-7,943029;112,6101414;Dinoyo, Lowokwaru;2;5;https://www.google.com/maps/search/?api=1&query=Kiss%20Mie%20Malang&query_place_id=ChIJB49cQ4uDeC4Rmm_mbBJE_Io;https://lh5.googleusercontent.com/p/AF1QipPuzIBD3apiacywdtzhf3CghA9gfd4j-NNjTQtn=w408-h543-k-no;10 AM to 10 PM;10 AM to 10 PM;10 AM to 10 PM;10 AM to 10 PM;10 AM to 10 PM;10 AM to 10 PM;10 AM to 10 PM;false;Tempat yang menyediakan menu berbagai macam jenis mie
Ropang Rokus GKB;Food court;Jl. Soekarno Hatta No.402, Mojolangu, Kec. Lowokwaru, Kota Malang, Jawa Timur 65141, Indonesia;/g/11jp88tzzl;-7,9401334;112,6245245;Mojolangu, Lowokwaru;5;5;https://www.google.com/maps/search/?api=1&query=Ropang%20Rokus%20GKB&query_place_id=ChIJ55U4YrMp1i0R1f68Qfsb8Jw;https://lh5.googleusercontent.com/p/AF1QipNwtrdgktBOO80kXKrrFtRIjWGyXXLhvEAVEqyp=w408-h271-k-no;;;;;;;;false;Tempat yang menyediakan berbagai menu makan yang nikmat
PUJASERA CENGKEH;Food court;Jl. Cengkeh No.14, Tulusrejo, Kec. Lowokwaru, Kota Malang, Jawa Timur 65141, Indonesia;/g/11kb552vnf;-7,9469209;112,6238854;Tulusrejo, Lowokwaru;237;4,4;https://www.google.com/maps/search/?api=1&query=PUJASERA%20CENGKEH&query_place_id=ChIJEbSNG78p1i0RhfUAZejNZuQ;https://lh5.googleusercontent.com/p/AF1QipPKYOqA55ke26npDrlx-6gVa9MNiuUhA052uRTJ=w426-h240-k-no;9 AM to 8 PM;9 AM to 8 PM;9 AM to 8 PM;9 AM to 8 PM;9 AM to 8 PM;9 AM to 8 PM;Closed;false;Tempat yang menyediakan berbagai gerai yang menjual aneka makanan
Najwa food;Food court;JL. Senggani no:30 dalam, masuk gang, Jatimulyo, Kec. Lowokwaru, Kota Malang, Jawa Timur 65141, Indonesia;/g/11kghrxtj_;-7,9449226;112,6167873;Jatimulyo, Lowokwaru;27;4,1;https://www.google.com/maps/search/?api=1&query=Najwa%20food&query_place_id=ChIJq8U3okuDeC4RvrHzj0R7Els;https://lh5.googleusercontent.com/p/AF1QipOq6EEXNnU--gg8pC5g4Sv9EIN0Ocz9q6lXzVm4=w426-h240-k-no;Open 24 hours;Open 24 hours;Open 24 hours;Open 24 hours;Open 24 hours;Open 24 hours;Open 24 hours;false;Tempat yang menyediakan berbagai menu makan yang nikmat
Warung Ayam Pemuda;Food court;Jl. Kerto Raharjo No.28, Ketawanggede, Kec. Lowokwaru, Kota Malang, Jawa Timur 65145, Indonesia;/g/11sry8vzlq;-7,9461453;112,6109723;Ketawanggede, Lowokwaru;15;3,7;https://www.google.com/maps/search/?api=1&query=Warung%20Ayam%20Pemuda&query_place_id=ChIJOU92LM6DeC4RK44mcIy6R7g;https://lh5.googleusercontent.com/p/AF1QipM7FPCaKl0hLOtqEkhH3gcTrYqCtt5wndR1YBt8=w408-h544-k-no;Open 24 hours;Open 24 hours;Open 24 hours;Open 24 hours;Open 24 hours;Open 24 hours;Open 24 hours;false;Tempat yang menyediakan berbagai menu makan ayam 
WG Culinary;Food court;Jl. Watu Gong No.13, Ketawanggede, Kec. Lowokwaru, Kota Malang, Jawa Timur 65144, Indonesia;/g/11s_tv1qzy;-7,9483566;112,6120095;Ketawanggede, Lowokwaru;0;0;https://www.google.com/maps/search/?api=1&query=WG%20Culinary&query_place_id=ChIJL69fZCGDeC4RQB4KnkudXUM;https://streetviewpixels-pa.googleapis.com/v1/thumbnail?panoid=Oe2ZspTI5ZbTzj8-c7j24g&cb_client=search.gws-prod.gps&w=408&h=240&yaw=117.97167&pitch=0&thumbfov=100;;;;;;;;false;Tempat yang menyediakan berbagai menu makanan
Bebek Pedas Madura;Food court;Jl. Cengger Ayam No.34, Tulusrejo, Kec. Lowokwaru, Kota Malang, Jawa Timur 65141, Indonesia;/g/11h0hjg2mn;-7,9478881;112,6320836;Tulusrejo, Lowokwaru;8;4,3;https://www.google.com/maps/search/?api=1&query=Bebek%20Pedas%20Madura&query_place_id=ChIJgYaiVe8p1i0R4C-mhz58ju8;https://lh5.googleusercontent.com/p/AF1QipO9CxTEKSXBauqPC84XImZ5mcpOJTLB06q9ghIv=w408-h320-k-no;10 AM to 9 PM;10 AM to 9 PM;10 AM to 9 PM;10 AM to 9 PM;10 AM to 9 PM;10 AM to 9 PM;10 AM to 9 PM;false;Tempat yang menyediakan menu makanan olahan bebek
Angkringan SA'JATI;Food court;Jl. Soekarno Hatta No.7, Jatimulyo, Kec. Lowokwaru, Kota Malang, Jawa Timur 65141, Indonesia;/g/11t_sflds6;-7,946157;112,6178497;Jatimulyo, Lowokwaru;2;3;https://www.google.com/maps/search/?api=1&query=Angkringan%20SA'JATI&query_place_id=ChIJLyV-w3WCeC4RMFYWTyJdo4Q;https://streetviewpixels-pa.googleapis.com/v1/thumbnail?panoid=bLFjIcqGX1ZwhoiphEN6RA&cb_client=search.gws-prod.gps&w=408&h=240&yaw=311.51382&pitch=0&thumbfov=100;Open 24 hours;Open 24 hours;Open 24 hours;Open 24 hours;Open 24 hours;Open 24 hours;Open 24 hours;false;Tempat yang menyediakan berbagai menu makan yang nikmat