placeId;name;address;category;description;city;reviewsCount;totalScore;hotelStars;postalCode;imageUrl;url;location/lat;location/lng;phone;openingHours/0/day;openingHours/0/hours;openingHours/1/day;openingHours/1/hours;openingHours/2/day;openingHours/2/hours;openingHours/3/day;openingHours/3/hours;openingHours/4/day;openingHours/4/hours;openingHours/5/day;openingHours/5/hours;openingHours/6/day;openingHours/6/hours
ChIJ24XrMqCCeC4Ri4OTjjc-ouw;Hotel Tugu Malang;Jl. Tugu No.3, Kauman, Kec. Klojen, Kota Malang, Jawa Timur 65119, Indonesia;Hotel;Refined rooms & suites in a high-end hotel offering an outdoor pool, a bar & a spa.;Malang City;2511;4.7;5-star hotel;65119;http://media.staticontent.com/media/pictures/055cfd7b-01a3-4904-89d0-97cbd8a7a6ff;https://www.google.com/maps/search/?api=1&query=Hotel%20Tugu%20Malang&query_place_id=ChIJ24XrMqCCeC4Ri4OTjjc-ouw;-7.9772124;112.6331606;+62 341 363891;;;;;;;;;;;;;;
ChIJ18BOm4Yp1i0RlDxSGWtp3Yg;SO! Boutique Hostel;Jl. Mojopahit No.1G, Kiduldalem, Kec. Klojen, Kota Malang, Jawa Timur 65119, Indonesia;Hostel;;Malang City;545;4.4;2-star hotel;65119;https://images.trvl-media.com/lodging/38000000/37170000/37163200/37163153/a676c500_z.jpg;https://www.google.com/maps/search/?api=1&query=SO!%20Boutique%20Hostel&query_place_id=ChIJ18BOm4Yp1i0RlDxSGWtp3Yg;-7.9796921;112.6312334;+62 341 3015179;;;;;;;;;;;;;;
ChIJLRRiKiEo1i0RBxT88o9wmoo;Hotel Aria Gajayana;Hotel Aria Gajayana, Mal Olympic Garden, Jl. Kawi, Kauman, Kec. Klojen, Kota Malang, Jawa Timur 65119, Indonesia;Hotel;Casual property offering airy quarters, plus a restaurant, an outdoor pool & breakfast.;Malang City;7203;4.6;4-star hotel;65119;https://images.trvl-media.com/lodging/11000000/10930000/10928300/10928243/4ff3570e_z.jpg;https://www.google.com/maps/search/?api=1&query=Hotel%20Aria%20Gajayana&query_place_id=ChIJLRRiKiEo1i0RBxT88o9wmoo;-7.977585;112.624006;+62 341 336262;;;;;;;;;;;;;;
ChIJQ2nFP4Mp1i0RQb4eFe_tJWo;Bobopod Alun-Alun, Malang;Jl. Merdeka Selatan No.5, Kauman, Kec. Klojen, Kota Malang, Jawa Timur 65119, Indonesia;Capsule hotel;Streamlined capsules with shared bathrooms in a relaxed hotel offering a workspace & a kitchenette.;Malang City;374;4.6;;65119;https://lh5.googleusercontent.com/p/AF1QipMbTaO1wM8DYYeZCdzXAZ7S2aKyDqCaG49wvXT5=w408-h306-k-no;https://www.google.com/maps/search/?api=1&query=Bobopod%20Alun-Alun%2C%20Malang&query_place_id=ChIJQ2nFP4Mp1i0RQb4eFe_tJWo;-7.9835318;112.6301217;+62 821-4250-2868;;;;;;;;;;;;;;
ChIJqbowzBgo1i0RhHVtEiKFeL0;Riche Heritage Hotel;Jl. Jenderal Basuki Rahmat No.01, Kiduldalem, Kec. Klojen, Kota Malang, Jawa Timur 65119, Indonesia;Hotel;Unassuming rooms in a low-key hotel offering a casual restaurant, a spa & a garden.;Malang City;1227;4.2;2-star hotel;65119;https://lh5.googleusercontent.com/p/AF1QipN2IhexymI74jMaoqNsc9S4Uo0Gdz3vQw8op2oG=w408-h261-k-no;https://www.google.com/maps/search/?api=1&query=Riche%20Heritage%20Hotel&query_place_id=ChIJqbowzBgo1i0RhHVtEiKFeL0;-7.9813684;112.630201;+62 896-1679-5100;;;;;;;;;;;;;;
ChIJs8kTQdkp1i0R-7JhAombGsE;Semeru Hostel Malang;Jl. Semeru No.64 a, Oro-oro Dowo, Kec. Klojen, Kota Malang, Jawa Timur 65112, Indonesia;Hostel;;Malang City;224;4.8;;65112;https://lh5.googleusercontent.com/p/AF1QipO737Kg4A3IIrgGayU2PsmtSHvV-5BLS5mWD1da=w408-h272-k-no;https://www.google.com/maps/search/?api=1&query=Semeru%20Hostel%20Malang&query_place_id=ChIJs8kTQdkp1i0R-7JhAombGsE;-7.9730432;112.6241919;+62 819-4495-8936;;;;;;;;;;;;;;
ChIJqQj4PZ-CeC4R16V0srDnxHw;Ijen Suites Resort & Convention Malang;Jl. Ijen Nirwana Raya Blok A No.16, Bareng, Kec. Klojen, Kota Malang, Jawa Timur 65116, Indonesia;Hotel;Unfussy rooms & suites in a laid-back hotel with a Cantonese eatery, a trendy bar & an outdoor pool.;Malang City;9707;4.6;4-star hotel;65116;https://dynamic-media-cdn.tripadvisor.com/media/photo-o/08/50/2f/4f/ijen-suites-hotel-malang.jpg?w=2100&h=1400&s=1;https://www.google.com/maps/search/?api=1&query=Ijen%20Suites%20Resort%20%26%20Convention%20Malang&query_place_id=ChIJqQj4PZ-CeC4R16V0srDnxHw;-7.9810379;112.6156218;+62 341 3301000;;;;;;;;;;;;;;
ChIJ22Y_qRko1i0RwvliCWbWQBs;The Grand Palace Hotel;Jl. Ade Irma Suryani No.23, Kasin, Kec. Klojen, Kota Malang, Jawa Timur 65117, Indonesia;Hotel;Upscale quarters in a polished hotel featuring a restaurant, a spa & a coffee shop with live music.;Malang City;1933;4.3;3-star hotel;65117;https://photos.hotelbeds.com/giata/original/33/339025/339025a_hb_a_001.jpg;https://www.google.com/maps/search/?api=1&query=The%20Grand%20Palace%20Hotel&query_place_id=ChIJ22Y_qRko1i0RwvliCWbWQBs;-7.985059;112.6292983;+62 341 332919;;;;;;;;;;;;;;
ChIJ0V1tGREo1i0RmyU7yqoTpIk;MADOR Malang Dorm Hostel;Jl. Laksamana Martadinata No.32, Kotalama, Kec. Kedungkandang, Kota Malang, Jawa Timur 65118, Indonesia;Hostel;Basic dorms & private rooms with shared bathrooms in a snug, relaxed hostel featuring free Wi-Fi.;Malang City;708;4.5;1-star hotel;65118;https://lh5.googleusercontent.com/p/AF1QipMdbqJ15crBoOTHfVrxFkNudUpWFbUFk95nJj-T=w408-h300-k-no;https://www.google.com/maps/search/?api=1&query=MADOR%20Malang%20Dorm%20Hostel&query_place_id=ChIJ0V1tGREo1i0RmyU7yqoTpIk;-7.9881738;112.6351839;+62 822-4559-7199;;;;;;;;;;;;;;
ChIJAYZhVzso1i0Rrb7_oprY3Ps;VK Pods Malang;Jl. Kahuripan No.22, Klojen, Kec. Klojen, Kota Malang, Jawa Timur 65111, Indonesia;Hostel;;Malang City;32;4.2;;65111;https://lh5.googleusercontent.com/p/AF1QipOJFC6JrtOti5lNwwFQ6ORQsglv3aOENMemH3XC=w408-h862-k-no;https://www.google.com/maps/search/?api=1&query=VK%20Pods%20Malang&query_place_id=ChIJAYZhVzso1i0Rrb7_oprY3Ps;-7.9763194;112.6299828;+62 812-3456-8553;;;;;;;;;;;;;;
ChIJk6VMciMo1i0RgNaABoKDp9Y;Grand Citihub Hotel @Kajoetangan;Jl. Jenderal Basuki Rahmat No.56, Kauman, Kec. Klojen, Kota Malang, Jawa Timur 65119, Indonesia;Hotel;Contemporary budget hotel offering complimentary breakfast, plus a hip lobby lounge & a terrace.;Malang City;2670;4.1;3-star hotel;65119;https://lh5.googleusercontent.com/p/AF1QipMCssjGdw2iyUAeQ0bSAcYB02MGXszbov1bufrk=w408-h306-k-no;https://www.google.com/maps/search/?api=1&query=Grand%20Citihub%20Hotel%20%40Kajoetangan&query_place_id=ChIJk6VMciMo1i0RgNaABoKDp9Y;-7.977098;112.629597;+62 341 3030000;;;;;;;;;;;;;;
ChIJI_Wu2SIo1i0RtHCDaFzEBGw;Huize Jon Hostel Malang;Pertokoan Kayutangan, Jl. Majapahit No.6 H7, Kauman, Kec. Klojen, Kota Malang, Jawa Timur 65119, Indonesia;Hostel;;Malang City;119;4.7;2-star hotel;65119;https://lh5.googleusercontent.com/p/AF1QipMC98efPVlsfc3KEPB41yceLq0qfffLtNhrBVoA=w408-h272-k-no;https://www.google.com/maps/search/?api=1&query=Huize%20Jon%20Hostel%20Malang&query_place_id=ChIJI_Wu2SIo1i0RtHCDaFzEBGw;-7.9796256;112.6308257;+62 812-3306-6434;;;;;;;;;;;;;;
ChIJne8oXRco1i0RYgg1T-n3gtY;The Alimar Hotel;Jl. Pasar Besar No.58, Sukoharjo, Kec. Klojen, Kota Malang, Jawa Timur 65118, Indonesia;Hotel;Warm rooms in an unpretentious property offering a restaurant, a bar & a convenience store.;Malang City;1257;4.2;3-star hotel;65118;https://lh5.googleusercontent.com/p/AF1QipMdy3NOuuhu4X2kIZKdVXJ9BmmfQdb9QH8GrMAN=w408-h271-k-no;https://www.google.com/maps/search/?api=1&query=The%20Alimar%20Hotel&query_place_id=ChIJne8oXRco1i0RYgg1T-n3gtY;-7.9860364;112.6323986;+62 877-8636-7779;;;;;;;;;;;;;;
ChIJwdsorDwo1i0REKCqThWXrmI;Tuwuh Hotel at Kayutangan;Jl. Kahuripan No.9, RW.3, Kauman, Kec. Klojen, Kota Malang, Jawa Timur 65111, Indonesia;Hotel;Unfussy rooms & suites in an informal hotel featuring a 24/7 restaurant & a coffee shop.;Malang City;2394;4.1;3-star hotel;65111;https://photos.hotelbeds.com/giata/original/25/256426/256426a_hb_a_005.jpg;https://www.google.com/maps/search/?api=1&query=Tuwuh%20Hotel%20at%20Kayutangan&query_place_id=ChIJwdsorDwo1i0REKCqThWXrmI;-7.9769735;112.6323513;+62 811-3502-133;;;;;;;;;;;;;;
ChIJqXUqaJmCeC4R0XLBhmBbCyc;Hostel Wees een kind;Pembina Jl. Markisa No.2, Pisang Candi, Kec. Sukun, Kota Malang, Jawa Timur 65146, Indonesia;Hostel;;Malang City;32;4.7;;65146;https://dynamic-media-cdn.tripadvisor.com/media/photo-o/09/e3/c7/6c/photo1jpg.jpg?w=1900&h=1400&s=1;https://www.google.com/maps/search/?api=1&query=Hostel%20Wees%20een%20kind&query_place_id=ChIJqXUqaJmCeC4R0XLBhmBbCyc;-7.978623;112.612415;+62 813-1781-8787;;;;;;;;;;;;;;
ChIJ-ynXiCQo1i0Ri_h-_r1kL_E;Whiz Prime Hotel Basuki Rahmat Malang;Jl. Jenderal Basuki Rahmat No.85-87, Klojen, Kec. Klojen, Kota Malang, Jawa Timur 65119, Indonesia;Hotel;Simply furnished rooms in a down-to-earth budget hotel offering a rooftop outdoor pool & city views.;Malang City;5477;4.4;3-star hotel;65119;https://lh5.googleusercontent.com/p/AF1QipMjftC8g27AwtZGf1u2YsBceM_ajxBDL62VuBmK=w408-h408-k-no;https://www.google.com/maps/search/?api=1&query=Whiz%20Prime%20Hotel%20Basuki%20Rahmat%20Malang&query_place_id=ChIJ-ynXiCQo1i0Ri_h-_r1kL_E;-7.9760377;112.6291313;+62 341 3030888;;;;;;;;;;;;;;
ChIJzfjcSpyCeC4RHFTM4Q_t0b4;Rumah Larasati;Jl. Semangka No.16, Bareng, Kec. Klojen, Kota Malang, Jawa Timur 65116, Indonesia;Hostel;;Malang City;229;4.7;1-star hotel;65116;https://dynamic-media-cdn.tripadvisor.com/media/photo-o/12/f1/a9/cc/rumah-larasati.jpg?w=1500&h=1000&s=1;https://www.google.com/maps/search/?api=1&query=Rumah%20Larasati&query_place_id=ChIJzfjcSpyCeC4RHFTM4Q_t0b4;-7.9762512;112.6168217;+62 813-3484-1136;;;;;;;;;;;;;;
ChIJn45-QRgo1i0RnoV59YKO7Go;Hotel Pelangi;Jl. Merdeka Selatan No.3, Kauman, Kec. Klojen, Kota Malang, Jawa Timur 65119, Indonesia;Hotel;Relaxed hotel in a 1915 property offering a refined restaurant, a cafe & an outdoor pool.;Malang City;2198;4.3;4-star hotel;65119;https://lh5.googleusercontent.com/p/AF1QipPmqPpDpT89kJeSn715G-FHFZHV3WgUmwQrNVeq=w408-h256-k-no;https://www.google.com/maps/search/?api=1&query=Hotel%20Pelangi&query_place_id=ChIJn45-QRgo1i0RnoV59YKO7Go;-7.9836023;112.6298098;+62 341 365156;;;;;;;;;;;;;;
ChIJaeLpRk4p1i0R-4uPjnWyhNw;Snooze Hostel Malang;Jl. Doktor Sutomo No.21, Klojen, Kec. Klojen, Kota Malang, Jawa Timur 65111, Indonesia;Youth hostel;Informal hostel offering low-key dorms & private rooms, plus lounges & a garden.;Malang City;139;4.9;;65111;https://lh5.googleusercontent.com/p/AF1QipOmOkm1BFrjgUqljdCxjbnRDjZZNDEZwecOkL6U=w408-h272-k-no;https://www.google.com/maps/search/?api=1&query=Snooze%20Hostel%20Malang&query_place_id=ChIJaeLpRk4p1i0R-4uPjnWyhNw;-7.9706877;112.6348681;+62 821-8218-4800;;;;;;;;;;;;;;
ChIJkVmLbJgp1i0RSB4DwNMH0PQ;Tychi Hotel;Jl. Jaksa Agung Suprapto No.17, Samaan, Kec. Klojen, Kota Malang, Jawa Timur 65112, Indonesia;Hotel;Warmly decorated quarters in an informal hotel offering a restaurant/cafe & an outdoor pool.;Malang City;1180;4;4-star hotel;65112;https://lh5.googleusercontent.com/p/AF1QipOCgi0muF-H2rAXs9jBSvT_2CmA-bwkJxg2IeRx=w408-h272-k-no;https://www.google.com/maps/search/?api=1&query=Tychi%20Hotel&query_place_id=ChIJkVmLbJgp1i0RSB4DwNMH0PQ;-7.9729354;112.6304549;+62 822-6444-1414;;;;;;;;;;;;;;
ChIJ58jOarYp1i0R-1NtWnFPaL4;The Aliante Hotel & Convention Center;Jl. Aries Munandar No.41-45, Kiduldalem, Kec. Klojen, Kota Malang, Jawa Timur 65119, Indonesia;Hotel;Elegant hotel offering an indoor pool & an exercise room, plus a restaurant & event space.;Malang City;2936;4.2;3-star hotel;65119;https://lh5.googleusercontent.com/p/AF1QipNs0LqfD8L4tP3e4cf5RFmYH8SZQJgWx2BKTTjT=w408-h284-k-no;https://www.google.com/maps/search/?api=1&query=The%20Aliante%20Hotel%20%26%20Convention%20Center&query_place_id=ChIJ58jOarYp1i0R-1NtWnFPaL4;-7.9815235;112.6348243;+62 341 350350;;;;;;;;;;;;;;
ChIJ0zUbuTMo1i0Rz8KwgQmsLeI;Butik Capsule Hostel;Jl. W.R. Supratman No.2L, Rampal Celaket, Kec. Klojen, Kota Malang, Jawa Timur 65111, Indonesia;Hostel;Straightforward dorm rooms with bunk beds in a down-to-earth hostel featuring lockers.;Malang City;452;4.6;1-star hotel;65111;https://lh5.googleusercontent.com/p/AF1QipPLqDLJqvto1g4PBwfP_-1zvmhwp_aXm33WTxIy=w408-h306-k-no;https://www.google.com/maps/search/?api=1&query=Butik%20Capsule%20Hostel&query_place_id=ChIJ0zUbuTMo1i0Rz8KwgQmsLeI;-7.9648036;112.6357732;+62 813-3685-1515;;;;;;;;;;;;;;
ChIJCdMU2igo1i0Rg6b1qRjKWPM;The Shalimar Boutique Hotel Malang;Jl. Cerme No.16, Oro-oro Dowo, Kec. Klojen, Kota Malang, Jawa Timur 65112, Indonesia;Hotel;Upscale quarters in a genteel 1930s hotel featuring a formal restaurant, an outdoor pool & a spa.;Malang City;1763;4.7;5-star hotel;65112;https://lh5.googleusercontent.com/p/AF1QipMdgy_t-6hqtg47kfkGIGcrZ-sAlpgklSnr3BeK=w408-h272-k-no;https://www.google.com/maps/search/?api=1&query=The%20Shalimar%20Boutique%20Hotel%20Malang&query_place_id=ChIJCdMU2igo1i0Rg6b1qRjKWPM;-7.9700247;112.6251707;+62 341 324989;;;;;;;;;;;;;;
ChIJ_5NdLQAp1i0RFjT8SP6ttYI;Youkata Stay Hotel Malang;Jl. W.R. Supratman No.22, Rampal Celaket, Kec. Klojen, Kota Malang, Jawa Timur 65111, Indonesia;Hostel;;Malang City;67;4.9;;65111;https://lh5.googleusercontent.com/p/AF1QipOVwzpimEQ7ZTJhaaDbCXajTbtE3-iOmQ_aLvS-=w408-h544-k-no;https://www.google.com/maps/search/?api=1&query=Youkata%20Stay%20Hotel%20Malang&query_place_id=ChIJ_5NdLQAp1i0RFjT8SP6ttYI;-7.9658718;112.6369394;+62 812-9292-1598;;;;;;;;;;;;;;
ChIJr-IebK0p1i0RS8VZt8LpVww;Pondok Backpacker City Square;Ruko Pertokoan Kayu Tangan, blok 6 Jl. Jenderal Basuki Rahmat No.C 8, Kauman, Kec. Klojen, Kota Malang, Jawa Timur 65119, Indonesia;Hostel;;Malang City;51;4.7;1-star hotel;65119;https://lh5.googleusercontent.com/p/AF1QipNSbJSTm-YKYfgGDlAwWa-WmNhZdryA_yK0Q56L=w408-h272-k-no;https://www.google.com/maps/search/?api=1&query=Pondok%20Backpacker%20City%20Square&query_place_id=ChIJr-IebK0p1i0RS8VZt8LpVww;-7.979536;112.6306939;+62 878-4679-8276;;;;;;;;;;;;;;
ChIJXQlGFSUo1i0RU0poiDpUDKk;Kartika Graha Hotel;Jl. Jaksa Agung Suprapto No.17, Oro-oro Dowo, Kec. Klojen, Kota Malang, Jawa Timur 65112, Indonesia;Hotel;Unpretentious hotel offering a cafe, a karaoke bar & an outdoor pool, plus a spa & free Wi-Fi.;Malang City;2069;4.1;3-star hotel;65112;http://media.staticontent.com/media/pictures/a3df206c-d973-4b1d-81d7-a9d878680ff1;https://www.google.com/maps/search/?api=1&query=Kartika%20Graha%20Hotel&query_place_id=ChIJXQlGFSUo1i0RU0poiDpUDKk;-7.973367;112.630233;+62 341 361900;;;;;;;;;;;;;;
ChIJZdycKUQp1i0R9ISPtgWEoxE;CUBIC ONE CAPSULE;Jl. Candi Sari III No.6, Mojolangu, Kec. Lowokwaru, Kota Malang, Jawa Timur 65142, Indonesia;Hostel;;Malang City;26;4.9;;65142;https://lh5.googleusercontent.com/p/AF1QipP3T1MjAHOIix5PtweQ50u7rhf1Jrv-DCRaB7AA=w408-h349-k-no;https://www.google.com/maps/search/?api=1&query=CUBIC%20ONE%20CAPSULE&query_place_id=ChIJZdycKUQp1i0R9ISPtgWEoxE;-7.9418552;112.6320865;+62 811-3665-063;;;;;;;;;;;;;;
ChIJuwGVzSco1i0R2DzO_Q2avzI;Kertanegara Premium Guest House;Jl. Semeru No.59, Gading Kasri, Kec. Klojen, Kota Malang, Jawa Timur 65115, Indonesia;Guest house;Understated lodging in a simple hotel with a relaxed TV lounge & a polished lobby.;Malang City;990;4.4;3-star hotel;65115;https://images.trvl-media.com/lodging/7000000/6010000/6001400/6001390/d61c8431_z.jpg;https://www.google.com/maps/search/?api=1&query=Kertanegara%20Premium%20Guest%20House&query_place_id=ChIJuwGVzSco1i0R2DzO_Q2avzI;-7.972886;112.6224259;+62 813-3331-5177;;;;;;;;;;;;;;
ChIJ6WDW9zoo1i0RY2w4Qq79Ako;Helios Hotel;Jl. Patimura No.37, Klojen, Kec. Klojen, Kota Malang, Jawa Timur 65111, Indonesia;Hotel;Laid-back accommodations, plus a rooftop restaurant/bar & a garden with fish ponds.;Malang City;837;4;2-star hotel;65111;https://lh5.googleusercontent.com/p/AF1QipMtVWnNb2kpu_sxKZL_SsuI2PuW1VsLaAlHe3wP=w426-h240-k-no;https://www.google.com/maps/search/?api=1&query=Helios%20Hotel&query_place_id=ChIJ6WDW9zoo1i0RY2w4Qq79Ako;-7.9732008;112.6346938;+62 812-1111-5787;;;;;;;;;;;;;;
ChIJ6YdgJmIp1i0RTpELR69Bw6M;Bedpackers Hostel Malang;Jl. Jaksa Agung Suprapto No.50a, Rampal Celaket, Kec. Klojen, Kota Malang, Jawa Timur 65112, Indonesia;Hostel;;Malang City;98;4.3;;65112;https://lh5.googleusercontent.com/p/AF1QipPHX5Ibwm4REfPne4hGE6jUjV1UlIzXSL-Y9njE=w408-h272-k-no;https://www.google.com/maps/search/?api=1&query=Bedpackers%20Hostel%20Malang&query_place_id=ChIJ6YdgJmIp1i0RTpELR69Bw6M;-7.9666643;112.6338727;+62 858-4378-3700;;;;;;;;;;;;;;
ChIJ9eKr6C8p1i0RWhOdOuoqrPA;M-Suite Homestay;Jl. Aries Munandar No.23, Kiduldalem, Kec. Klojen, Kota Malang, Jawa Timur 65119, Indonesia;Homestay;;Malang City;283;4.5;2-star hotel;65119;https://dynamic-media-cdn.tripadvisor.com/media/photo-o/17/83/35/36/oyo-272-m-suite-homestay.jpg?w=1400&h=1000&s=1;https://www.google.com/maps/search/?api=1&query=M-Suite%20Homestay&query_place_id=ChIJ9eKr6C8p1i0RWhOdOuoqrPA;-7.9813832;112.6337665;+62 811-3612-005;;;;;;;;;;;;;;
ChIJG8ZSemAo1i0RQcUQZCGMkys;Griya Gribig Guest House Mitra RedDoorz;Jl. Ki Ageng Gribig No.100, Madyopuro, Kec. Kedungkandang, Kota Malang, Jawa Timur 65139, Indonesia;Hostel;Unassuming rooms & suites in a modest hotel featuring parking, Wi-Fi & breakfast.;Malang City;379;4.4;;65139;https://cdn.worldota.net/t/1024x768/content/45/1d/451d8bd9e8af93782fb581b241b14baf24d5d1f8.jpeg;https://www.google.com/maps/search/?api=1&query=Griya%20Gribig%20Guest%20House%20Mitra%20RedDoorz&query_place_id=ChIJG8ZSemAo1i0RQcUQZCGMkys;-7.9803516;112.6651629;+62 895-4173-00072;;;;;;;;;;;;;;
ChIJ8WF-RZ2CeC4R014EOo44uFE;De'Corner Guest House;Jl. Telomoyo No.1, Gading Kasri, Kec. Klojen, Kota Malang, Jawa Timur 65115, Indonesia;Hotel;Warmly furnished rooms in a polished hotel offering complimentary breakfast & parking.;Malang City;1048;4.5;3-star hotel;65115;https://lh5.googleusercontent.com/p/AF1QipOl1FWUiQwXQFdV7NwMpHvL9Vx7GapUB2-LglEh=w408-h306-k-no;https://www.google.com/maps/search/?api=1&query=De'Corner%20Guest%20House&query_place_id=ChIJ8WF-RZ2CeC4R014EOo44uFE;-7.9731135;112.6184562;+62 341 559000;;;;;;;;;;;;;;
ChIJ9wfkCAAp1i0RYpTiAfEd10Y;DJURAGAN KAMAR SUHAT;Ruko Soekarno Hatta, SBC A10, Jatimulyo, Kec. Lowokwaru, Kota Malang, Jawa Timur 65141, Indonesia;Hostel;;Malang City;13;3.4;;65141;https://images.trvl-media.com/lodging/101000000/100060000/100053400/100053310/92da44df_z.jpg;https://www.google.com/maps/search/?api=1&query=DJURAGAN%20KAMAR%20SUHAT&query_place_id=ChIJ9wfkCAAp1i0RYpTiAfEd10Y;-7.9429625;112.6205234;;;;;;;;;;;;;;;
ChIJH3XEXi4o1i0RiZd32zrp7mE;Gets Hotel Malang;Jl. Brigjend Slamet Riadi No.38, Oro-oro Dowo, Kec. Klojen, Kota Malang, Jawa Timur 65119, Indonesia;Hotel;Streamlined rooms in a straightforward hotel with an outdoor pool & a fitness center.;Malang City;3146;4.4;3-star hotel;65119;https://images.trvl-media.com/lodging/14000000/13410000/13402000/13401971/3e798bd1_z.jpg;https://www.google.com/maps/search/?api=1&query=Gets%20Hotel%20Malang&query_place_id=ChIJH3XEXi4o1i0RiZd32zrp7mE;-7.9715171;112.6288385;+62 341 352777;;;;;;;;;;;;;;
ChIJ_5XiRzQo1i0RZOc_oqG8lbE;Pondok Backpacker Dormitory Hostel;Jl. Tumenggung Suryo No.28, Bunulrejo, Kec. Blimbing, Kota Malang, Jawa Timur 65111, Indonesia;Hostel;;Malang City;297;4.4;2-star hotel;65111;https://dynamic-media-cdn.tripadvisor.com/media/photo-o/14/fe/c6/33/pondok-backpacker-hostel.jpg?w=2100&h=1400&s=1;https://www.google.com/maps/search/?api=1&query=Pondok%20Backpacker%20Dormitory%20Hostel&query_place_id=ChIJ_5XiRzQo1i0RZOc_oqG8lbE;-7.9647102;112.6399369;+62 888-3339-960;;;;;;;;;;;;;;
ChIJ6WOYbWAp1i0RQl7v15DmJCE;Karjo Homestay;Jl. Sulfat Indah II No.23 B1, Pandanwangi, Kec. Blimbing, Kota Malang, Jawa Timur 65124, Indonesia;Hostel;;Malang City;1;3;;65124;https://lh5.googleusercontent.com/p/AF1QipO_8p68vLjWc2hUhQnEG_4LzgUqeBKN4Yhwj-yL=w408-h544-k-no;https://www.google.com/maps/search/?api=1&query=Karjo%20Homestay&query_place_id=ChIJ6WOYbWAp1i0RQl7v15DmJCE;-7.9613015;112.6535347;+62 818-0381-1385;;;;;;;;;;;;;;
ChIJqUpiLDIo1i0RjMh_mjn59Mk;Palmyra Homestay;Jl. Jaksa Agung Suprapto III No.1, Rampal Celaket, Kec. Klojen, Kota Malang, Jawa Timur 65111, Indonesia;Hostel;Simple dorms & rooms in an unassuming hostel offering a pool table, movie nights & a shared kitchen.;Malang City;143;4.5;1-star hotel;65111;https://lh5.googleusercontent.com/p/AF1QipP7Ov7GN6UGPIblHsVOVixHXpEEb36xfObbeJc2=w408-h272-k-no;https://www.google.com/maps/search/?api=1&query=Palmyra%20Homestay&query_place_id=ChIJqUpiLDIo1i0RjMh_mjn59Mk;-7.9658979;112.6346316;+62 895-2900-3534;;;;;;;;;;;;;;
ChIJmRArfd-DeC4RfPgo6zHOuZo;ritz packer lodge;Jl. Simp. Bandulan Bar. No.4, Bandulan, Kec. Sukun, Kota Malang, Jawa Timur 65146, Indonesia;Hostel;;Malang City;0;0;;65146;https://lh5.googleusercontent.com/p/AF1QipNvBI9MKQLIItCBEdEEzwCYFnBhrntc4J39uWMb=w408-h544-k-no;https://www.google.com/maps/search/?api=1&query=ritz%20packer%20lodge&query_place_id=ChIJmRArfd-DeC4RfPgo6zHOuZo;-7.9803759;112.5993358;+62 851-9500-0503;;;;;;;;;;;;;;
ChIJoeAFTx0p1i0R_vBX1zzagKQ;Shelter Hostel Malang;Jl. Suropati No.27, Klojen, Kec. Klojen, Kota Malang, Jawa Timur 65119, Indonesia;Lodge;Laid-back hostel offering funky dorms & private rooms with shared bathrooms, plus a colorful cafe.;Malang City;142;4.9;;65119;https://lh5.googleusercontent.com/p/AF1QipOpPK5P_yWyJajawanc9-fX8ALxWofBZnGuWQqt=w408-h306-k-no;https://www.google.com/maps/search/?api=1&query=Shelter%20Hostel%20Malang&query_place_id=ChIJoeAFTx0p1i0R_vBX1zzagKQ;-7.9734603;112.634562;+62 341 364000;;;;;;;;;;;;;;
ChIJHzweG3cp1i0R7VukDvTpFqg;RedDoorz Hostel near Malang Train Station 3;Jl. Kahuripan No.22, Klojen, Kec. Klojen, Kota Malang, Jawa Timur 65111, Indonesia;Hotel;Streamlined dorms featuring shared bathrooms in a modest hostel with a terrace, Wi-Fi & a TV lounge.;Malang City;216;4;;65111;https://lh5.googleusercontent.com/p/AF1QipNnUlzswtN9gTFbM2woisknC3ExcQjpxsvYf4KV=w408-h272-k-no;https://www.google.com/maps/search/?api=1&query=RedDoorz%20Hostel%20near%20Malang%20Train%20Station%203&query_place_id=ChIJHzweG3cp1i0R7VukDvTpFqg;-7.9763046;112.6301146;+62 21 80629666;;;;;;;;;;;;;;
ChIJs-1OnokNeC4RdbY2cqcd4FI;Splendid Inn Hotel;Jl. Majapahit No.4, Kauman, Kec. Klojen, Kota Malang, Jawa Timur 65119, Indonesia;Hotel;;Malang City;466;4.2;1-star hotel;65119;https://dynamic-media-cdn.tripadvisor.com/media/photo-o/0e/67/5f/22/rusty-everything.jpg?w=2100&h=1200&s=1;https://www.google.com/maps/search/?api=1&query=Splendid%20Inn%20Hotel&query_place_id=ChIJs-1OnokNeC4RdbY2cqcd4FI;-7.9776301;112.6332811;+62 341 366860;;;;;;;;;;;;;;
ChIJ3Qju_CQo1i0RJT4o1nuJoD8;Hotel Trio Indah 2;Jl. Brigjend Slamet Riadi No.1-3, Oro-oro Dowo, Kec. Klojen, Kota Malang, Jawa Timur 65119, Indonesia;Hotel;Straightforward rooms in a casual hotel featuring breakfast, a restaurant & Wi-Fi.;Malang City;1280;4.3;3-star hotel;65119;https://lh5.googleusercontent.com/p/AF1QipN_1cVOAs6BEAcuCx2FpBxAHIkoNRIWJMYFMkoJ=w408-h272-k-no;https://www.google.com/maps/search/?api=1&query=Hotel%20Trio%20Indah%202&query_place_id=ChIJ3Qju_CQo1i0RJT4o1nuJoD8;-7.9745158;112.6295025;+62 341 359083;;;;;;;;;;;;;;
ChIJW9tETywo1i0RYafS8VRGYos;Airy Klojen Gajayana Slamet Riyadi 1 Malang;Jl. Brigjend Slamet Riadi No.1-3, Oro-oro Dowo, Kec. Klojen, Kota Malang, Jawa Timur 65112, Indonesia;Hotel;;Malang City;409;4.2;2-star hotel;65112;https://lh3.googleusercontent.com/gps-proxy/ALd4DhEqD74eo2ApgeQJv8qSiv-5dnrhvPATqClBL4vCDsD8IXawbjTQJtWy-poP9P02xSotpl3YFPX78LTNj03iNh3uNZVctWjp3Lf1dbaswACVuV2hdbY1DDOEen9dVhtybIp5s_BQypR_eOyXJaIcjZepFW-wzW-P5z5HbbpofJb5k7o_vZOhsJxAEYHEsllgqXgYGoI=w408-h306-k-no;https://www.google.com/maps/search/?api=1&query=Airy%20Klojen%20Gajayana%20Slamet%20Riyadi%201%20Malang&query_place_id=ChIJW9tETywo1i0RYafS8VRGYos;-7.9744111;112.629421;+62 812-5076-2318;;;;;;;;;;;;;;
ChIJDzxCXhgo1i0RARQaH-xN4hM;Urbanview Hotel Fif Fa Kauman Malang by RedDoorz;Jl. Kyai H. Wahid Hasyim No.4, Kauman, Kec. Klojen, Kota Malang, Jawa Timur 65119, Indonesia;Hotel;Down-to-earth rooms offering complimentary Wi-Fi & flat-screen TVs in a laid-back property.;Malang City;482;3.7;2-star hotel;65119;https://cdn.worldota.net/t/1024x768/content/3b/9c/3b9c73287c5846591df924defedf2bb0bb23ba84.jpeg;https://www.google.com/maps/search/?api=1&query=Urbanview%20Hotel%20Fif%20Fa%20Kauman%20Malang%20by%20RedDoorz&query_place_id=ChIJDzxCXhgo1i0RARQaH-xN4hM;-7.983278;112.6290058;+62 341 347014;;;;;;;;;;;;;;
ChIJqQCsUTwo1i0RFrwyZP70R_s;Hotel Aloha Malang;Jl. Gajahmada No.7, Kiduldalem, Kec. Klojen, Kota Malang, Jawa Timur 65174, Indonesia;Hotel;Straightforward rooms, some with sitting areas, in an informal hotel offering a casual restaurant.;Malang City;911;4.3;3-star hotel;65174;https://lh5.googleusercontent.com/p/AF1QipM0-BOSYwhtQotGIQIPpbYvu46JYohgV7fM50Hh=w408-h272-k-no;https://www.google.com/maps/search/?api=1&query=Hotel%20Aloha%20Malang&query_place_id=ChIJqQCsUTwo1i0RFrwyZP70R_s;-7.9786929;112.6354288;+62 812-2888-8981;;;;;;;;;;;;;;
ChIJX2Nj3WMp1i0Rp4NUDsl2Go8;RedDoorz near Balai Kota Malang;Jl. Majapahit No.4, Kauman, Kec. Klojen, Kota Malang, Jawa Timur 65119, Indonesia;Hotel;Unpretentious rooms, some with minifridges, in a relaxed hotel featuring a lounge, dining & parking.;Malang City;342;4.1;2-star hotel;65119;https://lh5.googleusercontent.com/p/AF1QipNCreGQOqpchTn4HfUui0q14diZtgXZtkJ9zq8H=w408-h272-k-no;https://www.google.com/maps/search/?api=1&query=RedDoorz%20near%20Balai%20Kota%20Malang&query_place_id=ChIJX2Nj3WMp1i0Rp4NUDsl2Go8;-7.9776647;112.6331623;+62 21 80629666;;;;;;;;;;;;;;
ChIJD4eTkzoo1i0ROofMzYjZ24M;Same Hotel;Jl. Patimura No.19, Klojen, Kec. Klojen, Kota Malang, Jawa Timur 65111, Indonesia;Hotel;Unpretentious rooms in a down-to-earth hotel featuring meeting rooms & a 24-hour restaurant.;Malang City;3040;4.3;3-star hotel;65111;https://lh5.googleusercontent.com/p/AF1QipOW0b1247X2UGJWZ_q4QsoOI61QiFbOV1ujbafh=w426-h240-k-no;https://www.google.com/maps/search/?api=1&query=Same%20Hotel&query_place_id=ChIJD4eTkzoo1i0ROofMzYjZ24M;-7.9725046;112.633799;+62 341 3031666;;;;;;;;;;;;;;
ChIJ4Wr49n4p1i0RrcyrAp3HPdw;Morse Hotel;Jl. Trunojoyo No.02 Kav. 4, Kiduldalem, Kec. Klojen, Kota Malang, Jawa Timur 65119, Indonesia;Hotel;;Malang City;884;4.3;3-star hotel;65119;https://dynamic-media-cdn.tripadvisor.com/media/photo-o/0e/b4/07/2d/morse-guesthouse.jpg?w=2100&h=1400&s=1;https://www.google.com/maps/search/?api=1&query=Morse%20Hotel&query_place_id=ChIJ4Wr49n4p1i0RrcyrAp3HPdw;-7.9789025;112.6367121;;;;;;;;;;;;;;;
ChIJsxljpp2CeC4RsvRcOqveiFM;Syariah Radho Suites;Jl. Simpang Kawi No.3, Bareng, Kec. Klojen, Kota Malang, Jawa Timur 65116, Indonesia;Hotel;;Malang City;910;4;;65116;https://lh5.googleusercontent.com/p/AF1QipO5KShInJXVlFJTJ9fFZi-sLd639x_IjG1qY0do=w507-h240-k-no;https://www.google.com/maps/search/?api=1&query=Syariah%20Radho%20Suites&query_place_id=ChIJsxljpp2CeC4RsvRcOqveiFM;-7.9753617;112.6178857;+62 341 5081777;;;;;;;;;;;;;;
ChIJbXNpnRco1i0RLYUfnfHWq1M;Hotel Santosa;Jl. Agus Salim No.24, Sukoharjo, Kec. Klojen, Kota Malang, Jawa Timur 65119u, Indonesia;Hotel;Unassuming rooms, some with air conditioning, in a straightforward hotel offering a dining area.;Malang City;651;3.6;3-star hotel;65119u;https://cdn.worldota.net/t/1024x768/content/af/d2/afd2d52aaf74b65e801474cbb5022f5c4398ca07.jpeg;https://www.google.com/maps/search/?api=1&query=Hotel%20Santosa&query_place_id=ChIJbXNpnRco1i0RLYUfnfHWq1M;-7.9842159;112.6325137;+62 341 366889;;;;;;;;;;;;;;
ChIJB-EWPpYp1i0Rb0a6jJQibyM;Hotel Malang near Alun Alun Malang RedPartner;Jl. Zainul Arifin No.85-87, Sukoharjo, Kec. Klojen, Kota Malang, Jawa Timur 65118, Indonesia;Hotel;Simple rooms, some offering a/c, in an unassuming budget hotel featuring parking & Wi-Fi.;Malang City;457;3.2;1-star hotel;65118;https://lh5.googleusercontent.com/p/AF1QipM_JOZT5iYGG2jkfplWNGDlqD7ChNoWwTksaO4G=w408-h272-k-no;https://www.google.com/maps/search/?api=1&query=Hotel%20Malang%20near%20Alun%20Alun%20Malang%20RedPartner&query_place_id=ChIJB-EWPpYp1i0Rb0a6jJQibyM;-7.9853106;112.6337779;+62 21 29707601;;;;;;;;;;;;;;
ChIJi_va5BYo1i0R7zx2qY7munI;Hotel Tosari;Jl. KH Ahmad Dahlan No.31, Sukoharjo, Kec. Klojen, Kota Malang, Jawa Timur 65118, Indonesia;Hotel;Simple rooms in a no-nonsense budget hotel offering parking & a bright hallway lounge.;Malang City;394;3.5;2-star hotel;65118;https://cdn.worldota.net/t/1024x768/content/67/ba/67ba0ac279853c4ad3de24fceaaf66567dd939aa.JPEG;https://www.google.com/maps/search/?api=1&query=Hotel%20Tosari&query_place_id=ChIJi_va5BYo1i0R7zx2qY7munI;-7.9847087;112.6353291;+62 341 326945;;;;;;;;;;;;;;
ChIJQz_4nyQo1i0RmI-VcVsL5rc;Hotel Kahuripan Dan Sewamobilmurahmalang;Jl. Kahuripan No.11-D, Kauman, Kec. Klojen, Kota Malang, Jawa Timur 65111, Indonesia;Hotel;;Malang City;70;3.5;;65111;https://lh3.googleusercontent.com/gps-proxy/ALd4DhEP4OXekszw6VsI58h2jwdBfS3sfC_FsLDUVe-oEvlOcMjBAAg4-8etCr9oDqPbiT-JXupbQD48P5rMZAGAYO_5MSrGhDEBuvzMSqP2wmZucgeto2O559oWokqCA-cMZHwTpDn5tFwkNWZUnULxo0ahvtq7NWh8TEREGS5jjGgzIafuv8355HJlN6iFpGSFy2jdSvU=w408-h306-k-no;https://www.google.com/maps/search/?api=1&query=Hotel%20Kahuripan%20Dan%20Sewamobilmurahmalang&query_place_id=ChIJQz_4nyQo1i0RmI-VcVsL5rc;-7.9767745;112.6302725;+62 852-0422-0023;;;;;;;;;;;;;;
ChIJJQmmjCco1i0RF7fYSb3tSmQ;Srikandi Guesthouse;Jl. Panderman No.10, Gading Kasri, Kec. Klojen, Kota Malang, Jawa Timur 65115, Indonesia;Hotel;Conservative venue offering free breakfast, a guest kitchen & a garden atrium.;Malang City;276;4.4;1-star hotel;65115;https://dynamic-media-cdn.tripadvisor.com/media/photo-o/0d/30/ff/c9/srikandi-guest-house.jpg?w=2100&h=1400&s=1;https://www.google.com/maps/search/?api=1&query=Srikandi%20Guesthouse&query_place_id=ChIJJQmmjCco1i0RF7fYSb3tSmQ;-7.974263;112.6200916;+62 341 566913;;;;;;;;;;;;;;
ChIJ_8PpMJuCeC4RFNRM4JZgq6s;The Himana Malang;Jl. Terusan Dieng No.31, Pisang Candi, Kec. Sukun, Kota Malang, Jawa Timur 65146, Indonesia;Hotel;Straightforward hotel featuring airy rooms with colorful photographic murals & free Wi-Fi.;Malang City;650;4.3;3-star hotel;65146;https://dynamic-media-cdn.tripadvisor.com/media/photo-o/11/d6/a2/0f/starbucks-coffee-satu.jpg?w=2100&h=1200&s=1;https://www.google.com/maps/search/?api=1&query=The%20Himana%20Malang&query_place_id=ChIJ_8PpMJuCeC4RFNRM4JZgq6s;-7.9735328;112.6120045;+62 341 561000;;;;;;;;;;;;;;
ChIJoZ0rJjoo1i0RLlxlRNt8Yz4;Hotel Setia Budi;Jl. Pattimura no: 71 A, Klojen, Malang City, East Java 65111, Indonesia;Hotel;;Malang City;152;3.8;2-star hotel;65111;https://lh3.googleusercontent.com/gps-proxy/ALd4DhEAVhWrMqXye_MnmeVdpBlIGF13rNQN3C39adikafrXU-8KnU4RAVfvjjQT_GDJ6qNwuy50iIM87Pl4IF2dZAIvZ9pgIvyseipr8wIgO1J0igoUCnQtuVH7cpROeAHOrBf0WsZISYcrV9isoKHCXI0gWryPUE4Gy3UoUdRBHEmhPq4svRBQlotdd8qv85ZnVtBpOw=w408-h306-k-no;https://www.google.com/maps/search/?api=1&query=Hotel%20Setia%20Budi&query_place_id=ChIJoZ0rJjoo1i0RLlxlRNt8Yz4;-7.9732101;112.6374008;+62 811-3668-376;;;;;;;;;;;;;;
ChIJjUEjzyIo1i0RK4jdqtkt6Sg;Hotel Dermaga;Jl. MGR Sugiyopranoto No.3D, RW.3, Kiduldalem, Kec. Klojen, Kota Malang, Jawa Timur 65119, Indonesia;Hotel;;Malang City;7;3.6;;65119;https://lh3.googleusercontent.com/gps-proxy/ALd4DhHAjwNuipU5raoIcGwX6eoEkNITiEQmm6kkONfWNGVZXcLPFA7A3WNL2LRaQ3O4gFTDvtIzhvmRjCVdWqLNuCNNPN9YhD_7W_aBgwFppLjN41B2GB-AjC0eqptkgu21edzIZjGboYzFk44gwAObovrdhnY3PGi4exMhFJEZT6fnSxnhLItmZOcKwGLgCxsOETo8wZE=w408-h306-k-no;https://www.google.com/maps/search/?api=1&query=Hotel%20Dermaga&query_place_id=ChIJjUEjzyIo1i0RK4jdqtkt6Sg;-7.9801768;112.6311932;+62 812-3304-555;;;;;;;;;;;;;;
ChIJq_SSxjso1i0RtDMV0GySs-s;SPOT ON 91542 Hotel Emma;Hotel Emma, Jl. Trunojoyo No.21, Klojen, Kec. Klojen, Kota Malang, Jawa Timur 65111, Indonesia;Hotel;;Malang City;180;3.7;2-star hotel;65111;https://lh5.googleusercontent.com/p/AF1QipNyY8zF_4eGFHVvJ5jnNfI9w2W3_LMnzJwUPyR_=w408-h544-k-no;https://www.google.com/maps/search/?api=1&query=SPOT%20ON%2091542%20Hotel%20Emma&query_place_id=ChIJq_SSxjso1i0RtDMV0GySs-s;-7.974856;112.636552;+62 341 363198;;;;;;;;;;;;;;
ChIJ3R72sBco1i0RH-lspqOXCRw;Dewarna Hotel Arifin;Jl. Zainul Arifin No.55, Sukoharjo, Kec. Klojen, Kota Malang, Jawa Timur 65119, Indonesia;Hotel;Colorful, down-to-earth rooms, some with private balconies, in an unfussy budget hotel.;Malang City;767;3.8;2-star hotel;65119;https://lh3.googleusercontent.com/gps-proxy/ALd4DhFPproR7nTPzktEbEJTN8xepQkAlgm3vPG5qiwD5BLKJRvzjt2PV7OwVYtXOq5bvLfl7fLp3NSb6r2ccpWf-OQKwrHcKS4FGPum9hUr2ti-utO55lsa45EWIRihtI0xpX9dm5tnICzZPab5iNdjkPE1nAHoXvdpAfmV9IuKKONaBCrMcf_Cmc5iXlRbQFEfjaLrvA=w408-h306-k-no;https://www.google.com/maps/search/?api=1&query=Dewarna%20Hotel%20Arifin&query_place_id=ChIJ3R72sBco1i0RH-lspqOXCRw;-7.984177;112.63411;+62 341 321321;;;;;;;;;;;;;;
ChIJI0GmqYop1i0RG5qrElMXl6c;Swun Stay Inn @ Sawahan Mitra RedDoorz;Jl. Yulius Usman No.35, Kasin, Kec. Klojen, Kota Malang, Jawa Timur 65117, Indonesia;Hotel;;Malang City;39;4.5;;65117;https://lh5.googleusercontent.com/p/AF1QipPCLUVZE16NnTik4HQttBiQrQljIxXZkK7xChmC=w408-h725-k-no;https://www.google.com/maps/search/?api=1&query=Swun%20Stay%20Inn%20%40%20Sawahan%20Mitra%20RedDoorz&query_place_id=ChIJI0GmqYop1i0RG5qrElMXl6c;-7.9858598;112.626014;+62 895-4173-00072;;;;;;;;;;;;;;
ChIJMVJDrhco1i0RbYE3yq8ZR5c;Airy Alun Alun Malang Zainul Arifin 55;Jl. Zainul Arifin No.55, Sukoharjo, Kec. Klojen, Kota Malang, Jawa Timur 65119, Indonesia;Hotel;Simple rooms in a relaxed hotel offering a bright restaurant, plus complimentary Wi-Fi & breakfast.;Malang City;69;4.1;3-star hotel;65119;https://lh5.googleusercontent.com/p/AF1QipNs9QcpPXMfvKUVnKI0xEHbcGz4wdpYlVS5zBXA=w408-h862-k-no;https://www.google.com/maps/search/?api=1&query=Airy%20Alun%20Alun%20Malang%20Zainul%20Arifin%2055&query_place_id=ChIJMVJDrhco1i0RbYE3yq8ZR5c;-7.9841576;112.6341095;+62 804 111 2479;;;;;;;;;;;;;;
ChIJSTBRW-4p1i0Rxvpr89eQWcU;Omah Kawi Guest House;Kawi St No.7a, Kauman, Klojen, Malang City, East Java 65119, Indonesia;Hotel;;Malang City;144;4.7;;65119;https://lh5.googleusercontent.com/p/AF1QipOQt15C3ZjLTggCn5e34akiGr_3VtUWtCLNEr0W=w426-h240-k-no;https://www.google.com/maps/search/?api=1&query=Omah%20Kawi%20Guest%20House&query_place_id=ChIJSTBRW-4p1i0Rxvpr89eQWcU;-7.9804812;112.6265401;+62 341 326070;;;;;;;;;;;;;;
ChIJXTE0zoKCeC4RCpYYTAoaRuQ;Tunggul Wilis Villa;Jl. Wilis No.4, Gading Kasri, Kec. Klojen, Kota Malang, Jawa Timur 65115, Indonesia;Hotel;;Malang City;1;5;;65115;https://lh5.googleusercontent.com/p/AF1QipOEpIPGixTd0DBo6AXtwxnnROBEqzUxznuMU3z6=w408-h271-k-no;https://www.google.com/maps/search/?api=1&query=Tunggul%20Wilis%20Villa&query_place_id=ChIJXTE0zoKCeC4RCpYYTAoaRuQ;-7.971985;112.61771;;;;;;;;;;;;;;;
ChIJu-Md0y8o1i0R4DU_QUsW_xE;Huis Van Gustafine Villa;Jl. Hasanudin, Samaan, Kec. Klojen, Kota Malang, Jawa Timur 65112, Indonesia;Villa;;Malang City;125;4.8;;65112;https://lh5.googleusercontent.com/p/AF1QipNLn0HYBq2LwWZHSycQ4BeHlzK3wOPehHGHvGMg=w426-h240-k-no;https://www.google.com/maps/search/?api=1&query=Huis%20Van%20Gustafine%20Villa&query_place_id=ChIJu-Md0y8o1i0R4DU_QUsW_xE;-7.9691387;112.6312546;+62 815-1059-3443;;;;;;;;;;;;;;
ChIJy4ngRz6DeC4RmcDTsJlxZHs;Villa Efrina House;Villa Dieng residence Blok N 2, Pisang Candi, Kec. Sukun, Kota Malang, Jawa Timur 65146, Indonesia;Villa;;Malang City;10;5;;65146;https://lh5.googleusercontent.com/p/AF1QipMyMF1IfkryvKSA7CiJc7z93Cz4ZCtUrzfJP6JY=w408-h306-k-no;https://www.google.com/maps/search/?api=1&query=Villa%20Efrina%20House&query_place_id=ChIJy4ngRz6DeC4RmcDTsJlxZHs;-7.9762468;112.6064665;+62 896-0607-6119;Monday;12 AM to 5 PM;Tuesday;9 AM to 5 PM;Wednesday;9 AM to 5 PM;Thursday;9 AM to 5 PM;Friday;9 AM to 5 PM;Saturday;9 AM to 5 PM;Sunday;2 PM to 12 AM
ChIJ52-SkH0p1i0Rf3EE90-RKy4;The Urbanisia Villa;Jl. Banten No.14, Penanggungan, Kec. Klojen, Kota Malang, Jawa Timur 65113, Indonesia;Hotel;;Malang City;34;5;;65113;https://lh5.googleusercontent.com/p/AF1QipP2iocq2db79h7jZ9zd3lL3cKUwmktTkPzayw2g=w426-h240-k-no;https://www.google.com/maps/search/?api=1&query=The%20Urbanisia%20Villa&query_place_id=ChIJ52-SkH0p1i0Rf3EE90-RKy4;-7.9604679;112.6241797;+62 856-0794-2392;;;;;;;;;;;;;;
ChIJDxPzCQCDeC4RnkOhn_VbBAE;Villa victoria;Jl. Klayatan 1 No.41, Bandungrejosari, Kec. Sukun, Kota Malang, Jawa Timur 65148, Indonesia;Villa;;Malang City;1;5;;65148;https://streetviewpixels-pa.googleapis.com/v1/thumbnail?panoid=hBCkemjJE2Q2ysDn21AMsw&cb_client=search.gws-prod.gps&w=408&h=240&yaw=109.634476&pitch=0&thumbfov=100;https://www.google.com/maps/search/?api=1&query=Villa%20victoria&query_place_id=ChIJDxPzCQCDeC4RnkOhn_VbBAE;-8.0002999;112.6191156;;;;;;;;;;;;;;;
ChIJd6b5Pskn1i0RR4gNYRHU8Wc;Villa The Avenue;Jl. Green Hill 1 No.A3/36, Buring, Kec. Kedungkandang, Kota Malang, Jawa Timur 65136, Indonesia;Villa;;Malang City;9;5;;65136;https://lh5.googleusercontent.com/p/AF1QipORk9n0K4nxv38j9WwsSltcIEXsrJOlPHqVLSxI=w408-h306-k-no;https://www.google.com/maps/search/?api=1&query=Villa%20The%20Avenue&query_place_id=ChIJd6b5Pskn1i0RR4gNYRHU8Wc;-8.0102313;112.6569722;+62 822-3296-2633;Monday;Open 24 hours;Tuesday;Open 24 hours;Wednesday;Open 24 hours;Thursday;Open 24 hours;Friday;Open 24 hours;Saturday;Open 24 hours;Sunday;Open 24 hours
ChIJ_Rveic8p1i0Re0-hW04pA7Q;Villa;Perum River - Side, Jl. To Harris Hotel No.601 Blok D, Balearjosari, Kec. Blimbing, Kota Malang, Jawa Timur 65126, Indonesia;Villa;;Malang City;2;4.5;;65126;https://streetviewpixels-pa.googleapis.com/v1/thumbnail?panoid=0jon9kNUbq_Uqk-Mp-LuzA&cb_client=search.gws-prod.gps&w=408&h=240&yaw=109.34912&pitch=0&thumbfov=100;https://www.google.com/maps/search/?api=1&query=Villa&query_place_id=ChIJ_Rveic8p1i0Re0-hW04pA7Q;-7.9245133;112.6455668;;;;;;;;;;;;;;;
ChIJRdZM6Xsp1i0Rf5ZvmSWIrfw;soka villa;Jl. Kedawung gang 12 No.7, Tulusrejo, Kec. Lowokwaru, Kota Malang, Jawa Timur 65141, Indonesia;Villa;;Malang City;2;5;;65141;https://lh5.googleusercontent.com/p/AF1QipPwAyCFgm7Bxik29JLpsYfOsxu-jaz6BRJoLgEF=w408-h306-k-no;https://www.google.com/maps/search/?api=1&query=soka%20villa&query_place_id=ChIJRdZM6Xsp1i0Rf5ZvmSWIrfw;-7.9511439;112.6332404;+62 881-9782-502;Monday;Open 24 hours;Tuesday;Open 24 hours;Wednesday;Open 24 hours;Thursday;Open 24 hours;Friday;Open 24 hours;Saturday;Open 24 hours;Sunday;Open 24 hours
ChIJRUDUl4op1i0RrYfknkpIyxs;The Yoora Villa;Jl. Tumbal Negara II No.86, Madyopuro, Kec. Kedungkandang, Kota Malang, Jawa Timur 65139, Indonesia;Villa;;Malang City;88;5;;65139;https://lh5.googleusercontent.com/p/AF1QipNqGB7Ea867j4cwNhfXxAbL3RkAECd8Mvoonw_W=w408-h724-k-no;https://www.google.com/maps/search/?api=1&query=The%20Yoora%20Villa&query_place_id=ChIJRUDUl4op1i0RrYfknkpIyxs;-7.970439;112.6673027;+62 811-3603-103;Monday;Open 24 hours;Tuesday;Open 24 hours;Wednesday;Open 24 hours;Thursday;Open 24 hours;Friday;Open 24 hours;Saturday;Open 24 hours;Sunday;Open 24 hours
ChIJ7R5pFdUp1i0RagXhv6wHYfI;Villa Adela;Jl. Bandung No.D3/18, Puri, Gading, Kec. Klojen, Kota Malang, Jawa Timur, Indonesia;Villa;;Malang City;0;0;;;https://lh5.googleusercontent.com/p/AF1QipOG20CVxpjAV30PJV19Cf2CtrfZbWiJs6x7gMmV=w408-h306-k-no;https://www.google.com/maps/search/?api=1&query=Villa%20Adela&query_place_id=ChIJ7R5pFdUp1i0RagXhv6wHYfI;-7.9614251;112.6235213;;;;;;;;;;;;;;;
ChIJgRo-awCDeC4R4sSrggFlEAU;Villa Zalfa;Jl. Mertojoyo Bar. No.12, Merjosari, Kec. Lowokwaru, Kota Malang, Jawa Timur 65144, Indonesia;Villa;;Malang City;1;5;;65144;https://lh5.googleusercontent.com/p/AF1QipM-d_zYouQTWIBPHs96t9WB7JlCxBsQPam_6sSd=w408-h544-k-no;https://www.google.com/maps/search/?api=1&query=Villa%20Zalfa&query_place_id=ChIJgRo-awCDeC4R4sSrggFlEAU;-7.9390629;112.6037384;;;;;;;;;;;;;;;
ChIJf-6bDMSDeC4R92rJvDoglx8;VILLA JINGGA Syariah MALANG (Homestay Malang);Danendra Joyo Regency No.Kavling 7, Merjosari, Kec. Lowokwaru, Kota Malang, Jawa Timur 65144, Indonesia;Villa;;Malang City;30;5;;65144;https://lh5.googleusercontent.com/p/AF1QipNfwIZhuXA61xR7_Bw2rjs1EZiyH04Gp5hpcIu_=w408-h544-k-no;https://www.google.com/maps/search/?api=1&query=VILLA%20JINGGA%20Syariah%20MALANG%20(Homestay%20Malang)&query_place_id=ChIJf-6bDMSDeC4R92rJvDoglx8;-7.9430345;112.5905303;+62 895-4105-07449;;;;;;;;;;;;;;
ChIJ1aaeS42CeC4RkdXLm2NpPlc;Villa puncak dieng;Jl. Puncak Dieng No.14, Sumberjo, Kalisongo, Kec. Dau, Kabupaten Malang, Jawa Timur 65146, Indonesia;Villa;;Malang Regency;5;4.4;;65146;https://lh5.googleusercontent.com/p/AF1QipNzyToaZRyT_FITEXKJJEHeL0knHi78NJV5zW-I=w408-h250-k-no;https://www.google.com/maps/search/?api=1&query=Villa%20puncak%20dieng&query_place_id=ChIJ1aaeS42CeC4RkdXLm2NpPlc;-7.9725382;112.5963471;+62 812-3110-511;;;;;;;;;;;;;;
ChIJlVve2laDeC4RJDl9_PRhp7M;Villa Bukit Tidar C1 - 612;3H3P+W4R, Merjosari, Lowokwaru, Malang City, East Java 65144, Indonesia;Villa;;Malang City;11;4.7;;65144;https://lh5.googleusercontent.com/p/AF1QipOIEWpYQkGijyLY5pj2YK0cZOeEp-QDRMYd_bsC=w408-h544-k-no;https://www.google.com/maps/search/?api=1&query=Villa%20Bukit%20Tidar%20C1%20-%20612&query_place_id=ChIJlVve2laDeC4RJDl9_PRhp7M;-7.9451284;112.5852716;;;;;;;;;;;;;;;
ChIJxXZ7ggUp1i0RRDENAh5AClw;Villa Samawa Kota Malang;Perumahan permata jingga East Area No. 42, Tunggulwulung, Kec. Lowokwaru, Kota Malang, Jawa Timur 65143, Indonesia;Villa;;Malang City;81;4.9;;65143;https://lh5.googleusercontent.com/p/AF1QipPq6ACI1MKPIsIKQSj5X0-nc5aXXulXMNYHWpIC=w408-h408-k-no;https://www.google.com/maps/search/?api=1&query=Villa%20Samawa%20Kota%20Malang&query_place_id=ChIJxXZ7ggUp1i0RRDENAh5AClw;-7.9310307;112.6225968;+62 817-7933-5542;Monday;7 AM to 10 PM;Tuesday;7 AM to 10 PM;Wednesday;7 AM to 10 PM;Thursday;7 AM to 10 PM;Friday;7 AM to 10 PM;Saturday;Open 24 hours;Sunday;7 AM to 10 PM
ChIJe4hjP3yCeC4RDtgC1EBIGoM;Ratna Villa;Jl. Bend. Tangga No.18, Ketawanggede, Kec. Sukun, Kota Malang, Jawa Timur 65145, Indonesia;Villa;;Malang City;3;3.3;;65145;https://streetviewpixels-pa.googleapis.com/v1/thumbnail?panoid=qelYsKbqI8dv1N7pa1QRnA&cb_client=search.gws-prod.gps&w=408&h=240&yaw=206.06781&pitch=0&thumbfov=100;https://www.google.com/maps/search/?api=1&query=Ratna%20Villa&query_place_id=ChIJe4hjP3yCeC4RDtgC1EBIGoM;-7.9589564;112.6124383;+62 341 571053;;;;;;;;;;;;;;
ChIJZapEEPIp1i0R5G5NXZ1cKdU;Villa Malang Griya Singasari;Jl. Tumbal Negara No.50-51, Madyopuro, Kec. Kedungkandang, Kota Malang, Jawa Timur 65139, Indonesia;Villa;;Malang City;41;4.8;;65139;https://lh5.googleusercontent.com/p/AF1QipM98NNa7N1alvSlKzK--HhoP_9bsl2I3InwP7sy=w408-h544-k-no;https://www.google.com/maps/search/?api=1&query=Villa%20Malang%20Griya%20Singasari&query_place_id=ChIJZapEEPIp1i0R5G5NXZ1cKdU;-7.9714166;112.6672334;+62 812-3085-6267;Monday;Open 24 hours;Tuesday;Open 24 hours;Wednesday;Open 24 hours;Thursday;Open 24 hours;Friday;Open 24 hours;Saturday;Open 24 hours;Sunday;Open 24 hours
ChIJL2olIAAp1i0RlPJHD1_dxwE;Vila;Jl. Trunojoyo No.10, Kiduldalem, Kec. Klojen, Kota Malang, Jawa Timur, Indonesia;Villa;;Malang City;0;0;;;https://streetviewpixels-pa.googleapis.com/v1/thumbnail?panoid=MfJWF8KTbTA9OUhZMMl1iQ&cb_client=search.gws-prod.gps&w=408&h=240&yaw=100.485466&pitch=0&thumbfov=100;https://www.google.com/maps/search/?api=1&query=Vila&query_place_id=ChIJL2olIAAp1i0RlPJHD1_dxwE;-7.9775519;112.637033;;;;;;;;;;;;;;;
ChIJvTB6KACDeC4RAqUhJk1KrIA;Dika House;Jl. Mergan Raya Gg. 5 No.28, Tanjungrejo, Kec. Sukun, Kota Malang, Jawa Timur 65147, Indonesia;Villa;;Malang City;5;5;;65147;https://streetviewpixels-pa.googleapis.com/v1/thumbnail?panoid=ef2R_BR-94SPeBoJw-6vDg&cb_client=search.gws-prod.gps&w=408&h=240&yaw=74.79758&pitch=0&thumbfov=100;https://www.google.com/maps/search/?api=1&query=Dika%20House&query_place_id=ChIJvTB6KACDeC4RAqUhJk1KrIA;-7.9847286;112.6144204;;;;;;;;;;;;;;;
ChIJBSdreACDeC4RxXcUWCGdKOw;Villa Coco4;Jl. Nangka No.4, Bareng, Kec. Klojen, Kota Malang, Jawa Timur 65116, Indonesia;Guest house;;Malang City;7;4.7;;65116;https://lh5.googleusercontent.com/p/AF1QipNxPffqonXD7u5S4eDjtI9CvYelcbkEbC7sjJn0=w411-h240-k-no;https://www.google.com/maps/search/?api=1&query=Villa%20Coco4&query_place_id=ChIJBSdreACDeC4RxXcUWCGdKOw;-7.975838;112.615303;;;;;;;;;;;;;;;
ChIJY2ApYQAp1i0RvxkpsVjkvmU;Rumah;Gg. II No.683, Kauman, Kec. Klojen, Kota Malang, Jawa Timur 65119, Indonesia;Villa;;Malang City;0;0;;65119;;https://www.google.com/maps/search/?api=1&query=Rumah&query_place_id=ChIJY2ApYQAp1i0RvxkpsVjkvmU;-7.9821208;112.6280289;;;;;;;;;;;;;;;
ChIJQ6-SqgODeC4Rj2XNc-qFNnc;villa sawit;Jl. Klp. Sawit No.20, Pisang Candi, Kec. Sukun, Kota Malang, Jawa Timur 65146, Indonesia;Historical landmark;;Malang City;0;0;;65146;https://streetviewpixels-pa.googleapis.com/v1/thumbnail?panoid=RZ1dCvGIB59oOFphj1QawQ&cb_client=search.gws-prod.gps&w=408&h=240&yaw=213.66725&pitch=0&thumbfov=100;https://www.google.com/maps/search/?api=1&query=villa%20sawit&query_place_id=ChIJQ6-SqgODeC4Rj2XNc-qFNnc;-7.9784887;112.6105199;;;;;;;;;;;;;;;
ChIJjx7Y4B8o1i0R66W2s3tAgq0;Villas in Batu Indonesia;2J8C+H3J, Jl. I.R. Rais, Bareng, Kec. Klojen, Kota Malang, Jawa Timur 65119, Indonesia;Bed & breakfast;;Malang City;0;0;;65119;https://images.trvl-media.com/lodging/84000000/83950000/83946300/83946216/d6356e74_z.jpg;https://www.google.com/maps/search/?api=1&query=Villas%20in%20Batu%20Indonesia&query_place_id=ChIJjx7Y4B8o1i0R66W2s3tAgq0;-7.9835375;112.6201337;+62 453 6950111;;;;;;;;;;;;;;
ChIJB4ZvVAAp1i0RaCkLGCAaEAU;Ngaglik guest;Ngaglik Gg. 4b No.626-1, Tanjungrejo, Kec. Sukun, Kota Malang, Jawa Timur 65147, Indonesia;Villa;;Malang City;0;0;;65147;;https://www.google.com/maps/search/?api=1&query=Ngaglik%20guest&query_place_id=ChIJB4ZvVAAp1i0RaCkLGCAaEAU;-7.9857001;112.6206171;;;;;;;;;;;;;;;
ChIJF16SbgCDeC4R3aVAa0pkJ2Q;ALKAYS;2J96+8H2, Pisang Candi, Sukun, Malang City, East Java 65146, Indonesia;Villa;;Malang City;0;0;;65146;;https://www.google.com/maps/search/?api=1&query=ALKAYS&query_place_id=ChIJF16SbgCDeC4R3aVAa0pkJ2Q;-7.981712;112.611318;;;;;;;;;;;;;;;
ChIJP4Dxb2cp1i0RBgdsZCJ0M0c;"Oud Malang , Indië Villa "" Bella Vista """;2JCM+PV4, Jl. Gajahmada, Kiduldalem, Kec. Klojen, Kota Malang, Jawa Timur, Indonesia;Historical landmark;;Malang City;9;4.4;;;https://lh5.googleusercontent.com/p/AF1QipOqR558BaLqH3GqTHxixsRhBqubznIaUUa31ZxZ=w408-h306-k-no;https://www.google.com/maps/search/?api=1&query=Oud%20Malang%20%2C%20Indi%C3%AB%20Villa%20%22%20Bella%20Vista%20%22&query_place_id=ChIJP4Dxb2cp1i0RBgdsZCJ0M0c;-7.978248;112.6346905;;;;;;;;;;;;;;;
ChIJMczL1qCDeC4RPCToiSbhiqQ;N Kost;2JC9+2RW, Bareng, Klojen, Malang City, East Java 65116, Indonesia;Villa;;Malang City;0;0;;65116;https://lh5.googleusercontent.com/p/AF1QipPrOUnv8f1qWRSYGyzhNXy7Mpwek-j2fluvrdXp=w408-h544-k-no;https://www.google.com/maps/search/?api=1&query=N%20Kost&query_place_id=ChIJMczL1qCDeC4RPCToiSbhiqQ;-7.9798939;112.6195685;;Monday;Open 24 hours;Tuesday;Open 24 hours;Wednesday;Open 24 hours;Thursday;Open 24 hours;Friday;Open 24 hours;Saturday;Open 24 hours;Sunday;Open 24 hours
ChIJ3688sWQp1i0RbVSc3d7NNH8;KOST PUTRI AMEORA;2JGM+CQ4, Jl. Suropati Gg. 3, Klojen, Kec. Klojen, Kota Malang, Jawa Timur 65111, Indonesia;Villa;;Malang City;0;0;;65111;https://streetviewpixels-pa.googleapis.com/v1/thumbnail?panoid=-9BWkcXAMGgFGy1UaHa3LA&cb_client=search.gws-prod.gps&w=408&h=240&yaw=83.7156&pitch=0&thumbfov=100;https://www.google.com/maps/search/?api=1&query=KOST%20PUTRI%20AMEORA&query_place_id=ChIJ3688sWQp1i0RbVSc3d7NNH8;-7.9739989;112.6344683;+62 857-3567-3224;Monday;Open 24 hours;Tuesday;Open 24 hours;Wednesday;Open 24 hours;Thursday;Open 24 hours;Friday;Open 24 hours;Saturday;Open 24 hours;Sunday;Open 24 hours
ChIJa36qroiDeC4RhICTUXC5tMM;Villa Sunrise Malang;Gg. 1, Oro-oro Dowo, Kec. Klojen, Kota Malang, Jawa Timur 65119, Indonesia;Cafe;;Malang City;14;4.1;;65119;https://lh5.googleusercontent.com/p/AF1QipPdW1xYGnqhHDqUlqQm3GC3SWGipfkw3xzckbKp=w408-h306-k-no;https://www.google.com/maps/search/?api=1&query=Villa%20Sunrise%20Malang&query_place_id=ChIJa36qroiDeC4RhICTUXC5tMM;-7.9741685;112.6274458;+62 897-5692-424;Monday;9 AM to 5 PM;Tuesday;9 AM to 5 PM;Wednesday;Closed;Thursday;9 AM to 5 PM;Friday;9 AM to 5 PM;Saturday;9 AM to 5 PM;Sunday;9 AM to 5 PM
ChIJWf7NjR4o1i0RQPC5TWpKeuA;Penginapan Murah di Malang;Jl. Arif Margono No.56, Kasin, Kec. Klojen, Kota Malang, Jawa Timur 65117, Indonesia;Lodge;;Malang City;61;3.5;;65117;https://lh5.googleusercontent.com/p/AF1QipO5N0CIICCQBtksBe5J5fTQKC8muG1g546bdcCm=w408-h435-k-no;https://www.google.com/maps/search/?api=1&query=Penginapan%20Murah%20di%20Malang&query_place_id=ChIJWf7NjR4o1i0RQPC5TWpKeuA;-7.9864362;112.62344;+62 813-5840-2878;;;;;;;;;;;;;;
ChIJ0-SjpJyCeC4RtI5LV548bl0;Boulevard Homestay;Jl. Dieng No.15, Gading Kasri, Kec. Klojen, Kota Malang, Jawa Timur 65115, Indonesia;Hotel;;Malang City;342;4.3;3-star hotel;65115;https://dynamic-media-cdn.tripadvisor.com/media/photo-o/0c/19/70/e1/tampak-muka.jpg?w=2100&h=1200&s=1;https://www.google.com/maps/search/?api=1&query=Boulevard%20Homestay&query_place_id=ChIJ0-SjpJyCeC4RtI5LV548bl0;-7.9735239;112.6144397;+62 341 564693;;;;;;;;;;;;;;
ChIJnclu5cqDeC4RcgJlwMl34XU;OYO 1110 Ijen Butik House;Cluster Green Trees, Perumahan Ijen Nirwana Residence, Jl. Ijen Nirwana Residence Blok Green Tress F2 No.8, Bareng, Klojen, Malang City, East Java 65116, Indonesia;Hotel;Understated rooms & stylish suites in a casual budget hotel featuring a kitchen, a lounge & parking.;Malang City;73;4.7;2-star hotel;65116;https://lh5.googleusercontent.com/p/AF1QipMHV5sQb5MjMmuKwNWRpkg_8MJ-oO7iQuCprpjk=w408-h272-k-no;https://www.google.com/maps/search/?api=1&query=OYO%201110%20Ijen%20Butik%20House&query_place_id=ChIJnclu5cqDeC4RcgJlwMl34XU;-7.9794481;112.6157734;+62 21 29707601;;;;;;;;;;;;;;
ChIJDfs1Szwo1i0Rkdn22Cv3Hgw;ZEN Rooms near Stasiun Kota Baru;Jl. Trunojoyo No.2, Kiduldalem, Kec. Klojen, Kota Malang, Jawa Timur 65111, Indonesia;Hotel;Laid-back budget hotel offering simply furnished rooms, plus lounges & a restaurant.;Malang City;11;4.3;3-star hotel;65111;https://lh5.googleusercontent.com/p/AF1QipMBan1t-MbJ3cJaPoFEfTj8luRMo8PAmi8oY0B6=w408-h306-k-no;https://www.google.com/maps/search/?api=1&query=ZEN%20Rooms%20near%20Stasiun%20Kota%20Baru&query_place_id=ChIJDfs1Szwo1i0Rkdn22Cv3Hgw;-7.9790452;112.6371335;+62 855-7467-1004;;;;;;;;;;;;;;
ChIJF5YEHSMo1i0RtmQXH0AmVOg;Wisma;Kauman, Klojen, Malang City, East Java, Indonesia;Hotel;;Malang City;2;4.5;;;https://lh5.googleusercontent.com/p/AF1QipPTwslayz93LJSYl2YgaHCE49arBJhGDYOswIZt=w408-h725-k-no;https://www.google.com/maps/search/?api=1&query=Wisma&query_place_id=ChIJF5YEHSMo1i0RtmQXH0AmVOg;-7.9792622;112.6296947;;;;;;;;;;;;;;;
ChIJbfxg4J2CeC4R-K3PyL2lYeY;Pulosari Living;Jl. Rajekwesi No.1, RT.07/RW.06, Gading Kasri, Kec. Klojen, Kota Malang, Jawa Timur 65116, Indonesia;Guest house;;Malang City;379;4.2;1-star hotel;65116;https://lh5.googleusercontent.com/p/AF1QipP8m5LJJK-WRMFr7hrmi9iHs9o-C9dDSdN5hGXd=w408-h306-k-no;https://www.google.com/maps/search/?api=1&query=Pulosari%20Living&query_place_id=ChIJbfxg4J2CeC4R-K3PyL2lYeY;-7.9739223;112.6168839;+62 878-5988-7744;;;;;;;;;;;;;;
ChIJNw1Jt7Mp1i0RIHjFZgv9Nmw;Homestay Syariah, Penginapan Murah, Backpackers, Tempat Istirahat, Transit.(RASFA Homestay Syariah);Jl. SIMP Pattimura No.2-6, Klojen, Kec. Klojen, Kota Malang, Jawa Timur 65111, Indonesia;Hotel;;Malang City;44;4.3;;65111;https://lh5.googleusercontent.com/p/AF1QipOXCLf9aKmnmNULYekVttY1_B6h9_IBuBgmRW9-=w408-h544-k-no;https://www.google.com/maps/search/?api=1&query=Homestay%20Syariah%2C%20Penginapan%20Murah%2C%20Backpackers%2C%20Tempat%20Istirahat%2C%20Transit.(RASFA%20Homestay%20Syariah)&query_place_id=ChIJNw1Jt7Mp1i0RIHjFZgv9Nmw;-7.9740355;112.636358;+62 822-4544-4014;;;;;;;;;;;;;;
ChIJMynNsiYo1i0REbXzDq0ttsI;Super OYO 353 Loesje Guest House Syariah;Jl. Tangkuban Perahu No.21, Kauman, Kec. Klojen, Kota Malang, Jawa Timur 65119, Indonesia;Hotel;Unpretentious property offering a shared kitchen, a lounge & a dining area, plus a terrace.;Malang City;302;4.2;2-star hotel;65119;https://lh5.googleusercontent.com/p/AF1QipN-BQtuRoNwnPRxZybc81Nyq00-aBsjteQJ_hYT=w408-h272-k-no;https://www.google.com/maps/search/?api=1&query=Super%20OYO%20353%20Loesje%20Guest%20House%20Syariah&query_place_id=ChIJMynNsiYo1i0REbXzDq0ttsI;-7.9769477;112.6252761;+62 21 29707601;;;;;;;;;;;;;;
ChIJzfU9T52CeC4R8moL6Ed589E;Tini's Guest House Malang Mitra RedDoorz;Jl. Telomoyo No.14, Gading Kasri, Kec. Klojen, Kota Malang, Jawa Timur 65115, Indonesia;Hotel;;Malang City;40;4.1;2-star hotel;65115;https://lh5.googleusercontent.com/p/AF1QipP2zQwIPK2XprnkIwbzh2ds7aUhQVqmR1i1LkmU=w443-h240-k-no;https://www.google.com/maps/search/?api=1&query=Tini's%20Guest%20House%20Malang%20Mitra%20RedDoorz&query_place_id=ChIJzfU9T52CeC4R8moL6Ed589E;-7.9728819;112.618846;+62 895-4173-00072;;;;;;;;;;;;;;
ChIJKefiT52CeC4RzUg6toFZYds;Armyn Luxury Guest House;Jl. Telomoyo No.22, Gading Kasri, Kec. Klojen, Kota Malang, Jawa Timur 65100, Indonesia;Hotel;;Malang City;258;4.4;3-star hotel;65100;https://cdn.worldota.net/t/1024x768/content/c6/19/c619166f98c5e9f817383d13e13e865a064fa7e5.jpeg;https://www.google.com/maps/search/?api=1&query=Armyn%20Luxury%20Guest%20House&query_place_id=ChIJKefiT52CeC4RzUg6toFZYds;-7.9728699;112.6179886;+62 341 556220;;;;;;;;;;;;;;
ChIJmVgCyiUo1i0RtzYwNbWctxc;Woodland Property Group;Jl. Bromo No.41, Oro-oro Dowo, Kec. Klojen, Kota Malang, Jawa Timur 65112, Indonesia;Real estate developer;;Malang City;4;5;;65112;https://lh5.googleusercontent.com/p/AF1QipMaMrAxDcm8KxklOxhUpaNowPgvCITMYlWsZ3mM=w408-h306-k-no;https://www.google.com/maps/search/?api=1&query=Woodland%20Property%20Group&query_place_id=ChIJmVgCyiUo1i0RtzYwNbWctxc;-7.9742308;112.627334;+62 822-7800-3200;Monday;9 AM to 5 PM;Tuesday;9 AM to 5 PM;Wednesday;9 AM to 5 PM;Thursday;9 AM to 5 PM;Friday;9 AM to 5 PM;Saturday;9 AM to 2 PM;Sunday;Closed
ChIJi_uyBpmDeC4Rd4v1yovg6tA;Good Feeling Malang;kec, Jl. Joyo Asri, Perumahan Jl. Perum Joyo Grand No.03 blok i1, Merjosari, Kec. Lowokwaru, Kota Malang, Jawa Timur 65514, Indonesia;Hostel;;Malang City;15;4.8;;65514;https://lh5.googleusercontent.com/p/AF1QipOYjif7p9c3_yj8Or5sMD1sWIrwVtJatP9T-f0H=w408-h544-k-no;https://www.google.com/maps/search/?api=1&query=Good%20Feeling%20Malang&query_place_id=ChIJi_uyBpmDeC4Rd4v1yovg6tA;-7.9418902;112.5954089;+62 822-5781-8987;;;;;;;;;;;;;;
ChIJM2RQSOSDeC4RO3Dv77lmfV4;Osborn coliving and coworking;Jl. Arumba No.7, RT.001/RW.004, Tunggulwulung, Kec. Lowokwaru, Kota Malang, Jawa Timur 65143, Indonesia;Hostel;;Malang City;59;4.3;;65143;https://lh5.googleusercontent.com/p/AF1QipNFN6_w81ljbRAfOQuv32kG4HhKxhGa0O8sUxDM=w408-h612-k-no;https://www.google.com/maps/search/?api=1&query=Osborn%20coliving%20and%20coworking&query_place_id=ChIJM2RQSOSDeC4RO3Dv77lmfV4;-7.928016;112.6120832;+62 821-4101-4414;;;;;;;;;;;;;;
ChIJB16sdM8p1i0Rb-b6WRhfpYU;Kedawung Backpacker;Jl. Kedawung No.67, Tulusrejo, Kec. Lowokwaru, Kota Malang, Jawa Timur 65141, Indonesia;Hostel;;Malang City;54;4.1;;65141;https://lh5.googleusercontent.com/p/AF1QipPrO8e5dJqnllerz0sUoIGQY6ZA3EEqyxjac5lW=w480-h240-k-no;https://www.google.com/maps/search/?api=1&query=Kedawung%20Backpacker&query_place_id=ChIJB16sdM8p1i0Rb-b6WRhfpYU;-7.9523159;112.6350328;+62 811-3031-777;;;;;;;;;;;;;;
ChIJZ6XS2WODeC4RTNjWv_BKZZ4;NN. Griya Kost;Jl. Raya Tlogomas Gg. 15c No.4, Tlogomas, Kec. Lowokwaru, Kota Malang, Jawa Timur 65144, Indonesia;Hostel;;Malang City;2;5;;65144;https://streetviewpixels-pa.googleapis.com/v1/thumbnail?panoid=Y8HWsU_9xst260i0ThpPOw&cb_client=search.gws-prod.gps&w=408&h=240&yaw=30.904915&pitch=0&thumbfov=100;https://www.google.com/maps/search/?api=1&query=NN.%20Griya%20Kost&query_place_id=ChIJZ6XS2WODeC4RTNjWv_BKZZ4;-7.9235546;112.5988663;+62 822-1809-8798;;;;;;;;;;;;;;
ChIJfeWK46ODeC4RxinzaU5rSoE;Boarding House R3;Wisata Kuliner Taman Singha, Jl. Mertojoyo No.13, Merjosari, Kec. Lowokwaru, Kota Malang, Jawa Timur 65144, Indonesia;Hostel;;Malang City;7;5;;65144;https://lh5.googleusercontent.com/p/AF1QipP3CDlzGvYaIakbNpcly4J-1bMmVvRcUJQ0DtnV=w426-h240-k-no;https://www.google.com/maps/search/?api=1&query=Boarding%20House%20R3&query_place_id=ChIJfeWK46ODeC4RxinzaU5rSoE;-7.9438898;112.602305;+62 822-1111-1995;;;;;;;;;;;;;;
ChIJ6YLhL_ODeC4RrtoT6ROSRaI;Rumah kontraan pojok;Jl. Joyo Taman Sari I Gg. 2 No.71a, Merjosari, Kec. Lowokwaru, Kota Malang, Jawa Timur 65144, Indonesia;Hostel;;Malang City;1;5;;65144;;https://www.google.com/maps/search/?api=1&query=Rumah%20kontraan%20pojok&query_place_id=ChIJ6YLhL_ODeC4RrtoT6ROSRaI;-7.9429204;112.598425;;;;;;;;;;;;;;;
ChIJXQTwPwCDeC4RV5lXrwrMsGY;APARTEMENT;Jl. Tlogo Sari No.37j, Tlogomas, Kec. Lowokwaru, Kota Malang, Jawa Timur 65144, Indonesia;Hostel;;Malang City;6;4.8;;65144;https://streetviewpixels-pa.googleapis.com/v1/thumbnail?panoid=55Cr4RkUZD6W8TQbyS9jsg&cb_client=search.gws-prod.gps&w=408&h=240&yaw=314.8868&pitch=0&thumbfov=100;https://www.google.com/maps/search/?api=1&query=APARTEMENT&query_place_id=ChIJXQTwPwCDeC4RV5lXrwrMsGY;-7.9385359;112.601063;;;;;;;;;;;;;;;
ChIJjf-N8EODeC4RaTJlAwzIIHc;Salvia;Malang, taman, Merjosari, Kec. Lowokwaru, Kota Malang, Jawa Timur 65152, Indonesia;Hostel;;Malang City;2;4;;65152;https://lh5.googleusercontent.com/p/AF1QipNleAqGbu_kDmNKsVFIzyEq-Hpaqiqha7fk8Ep2=w408-h544-k-no;https://www.google.com/maps/search/?api=1&query=Salvia&query_place_id=ChIJjf-N8EODeC4RaTJlAwzIIHc;-7.9439314;112.6020041;;;;;;;;;;;;;;;
ChIJA1H5AgCDeC4R0PqjS-djGZI;Du'Kost;Perumahan Grandsuroso 1 No.A12, Merjosari, Kec. Lowokwaru, Kota Malang, Jawa Timur 65144, Indonesia;Hostel;;Malang City;4;5;;65144;https://streetviewpixels-pa.googleapis.com/v1/thumbnail?panoid=q1M5GElnyrd9WWv3SQG-dQ&cb_client=search.gws-prod.gps&w=408&h=240&yaw=218.65143&pitch=0&thumbfov=100;https://www.google.com/maps/search/?api=1&query=Du'Kost&query_place_id=ChIJA1H5AgCDeC4R0PqjS-djGZI;-7.9403094;112.584541;;;;;;;;;;;;;;;
ChIJvTOvTRCDeC4RcRSurkGwxRo;Kos Sahabat;Jl. Mertojoyo Selatan Blk. A No.9A, Merjosari, Kec. Lowokwaru, Kota Malang, Jawa Timur 65144, Indonesia;Hostel;;Malang City;2;5;;65144;https://lh5.googleusercontent.com/p/AF1QipNqjUVPCEvaHJQhuNa2_0jOg634phfj2n3rDNC1=w408-h724-k-no;https://www.google.com/maps/search/?api=1&query=Kos%20Sahabat&query_place_id=ChIJvTOvTRCDeC4RcRSurkGwxRo;-7.9440126;112.6032387;+62 812-3372-6589;;;;;;;;;;;;;;
ChIJpaCjrDWDeC4RI9tHG1kZYpI;Kost HKR;Jl. Mertojoyo Selatan Blk. A No.A 4, Merjosari, Kec. Lowokwaru, Kota Malang, Jawa Timur 65144, Indonesia;Hostel;;Malang City;3;5;;65144;https://streetviewpixels-pa.googleapis.com/v1/thumbnail?panoid=vEbH4dBQ-AtFNqIouNOs4Q&cb_client=search.gws-prod.gps&w=408&h=240&yaw=9.006892&pitch=0&thumbfov=100;https://www.google.com/maps/search/?api=1&query=Kost%20HKR&query_place_id=ChIJpaCjrDWDeC4RI9tHG1kZYpI;-7.9442214;112.6033776;;;;;;;;;;;;;;;
ChIJPcBiGDWDeC4Rj70eqkNiTtA;Kos;2HWV+MJ9, Jl. Simpang Candi 6 C, Karangbesuki, Kec. Sukun, Kota Malang, Jawa Timur 65149, Indonesia;Hostel;;Malang City;1;5;;65149;https://streetviewpixels-pa.googleapis.com/v1/thumbnail?panoid=sDFtY5FauHym-zlG7bQRAA&cb_client=search.gws-prod.gps&w=408&h=240&yaw=27.175264&pitch=0&thumbfov=100;https://www.google.com/maps/search/?api=1&query=Kos&query_place_id=ChIJPcBiGDWDeC4Rj70eqkNiTtA;-7.9533323;112.5940989;;;;;;;;;;;;;;;
ChIJfW0RMACDeC4RvL0naRVxI4c;Kost putra Q6;Mertojoyo Blok Q No.Q6, Merjosari, Lowokwaru, Malang City, East Java 65144, Indonesia;Hostel;;Malang City;2;4.5;;65144;https://lh5.googleusercontent.com/p/AF1QipOOgi7iBFLXZdZ8h2uwW3TiJKRtbbZNHQZFL9_8=w408-h306-k-no;https://www.google.com/maps/search/?api=1&query=Kost%20putra%20Q6&query_place_id=ChIJfW0RMACDeC4RvL0naRVxI4c;-7.9429187;112.6036761;+62 821-1359-7349;;;;;;;;;;;;;;
ChIJwdqPLwCDeC4RxkiPJiH1ZiE;KostUti;Blok L7 No.L7, Jl. Mertojoyo, Merjosari, Kec. Lowokwaru, Kota Malang, Jawa Timur 65144, Indonesia;Hostel;;Malang City;0;0;;65144;https://streetviewpixels-pa.googleapis.com/v1/thumbnail?panoid=4vvmxgekWGMFslS_DAKQEw&cb_client=search.gws-prod.gps&w=408&h=240&yaw=184.7461&pitch=0&thumbfov=100;https://www.google.com/maps/search/?api=1&query=KostUti&query_place_id=ChIJwdqPLwCDeC4RxkiPJiH1ZiE;-7.9407142;112.6018103;;;;;;;;;;;;;;;
ChIJh_XDv8CDeC4RAptF4pz3iBY;Home Stay Azzam;Griya Panorama Asri Blk. A2, Ngijo, Kec. Karang Ploso, Kota Malang, Jawa Timur 65152, Indonesia;Hostel;;Malang City;0;0;;65152;https://lh5.googleusercontent.com/p/AF1QipOXDR9umgpahgH9sVoW-aPQTqfVBe3nRJKR55qm=w408-h906-k-no;https://www.google.com/maps/search/?api=1&query=Home%20Stay%20Azzam&query_place_id=ChIJh_XDv8CDeC4RAptF4pz3iBY;-7.9422746;112.5800937;+62 857-2840-4313;;;;;;;;;;;;;;
ChIJjafkTgCDeC4RegKk0xyPsso;Jasmin Boarding House Graha Agung SN 11;3H3V+V6F, Merjosari, Lowokwaru, Malang City, East Java, Indonesia;Hostel;;Malang City;0;0;;;;https://www.google.com/maps/search/?api=1&query=Jasmin%20Boarding%20House%20Graha%20Agung%20SN%2011&query_place_id=ChIJjafkTgCDeC4RegKk0xyPsso;-7.945231;112.5928999;;;;;;;;;;;;;;;
ChIJz6k8P2yCeC4RHn9UdDUBy1M;Kost Putri SPJ;Jl. Joyo Suko No.2, Merjosari, Kec. Lowokwaru, Kota Malang, Jawa Timur 65144, Indonesia;Hostel;;Malang City;16;4.2;;65144;https://lh5.googleusercontent.com/p/AF1QipN1-lJtyc5U9do9z_B1kOGlERZVE05dlX7h0gzw=w426-h240-k-no;https://www.google.com/maps/search/?api=1&query=Kost%20Putri%20SPJ&query_place_id=ChIJz6k8P2yCeC4RHn9UdDUBy1M;-7.9466388;112.603658;+62 812-2030-6787;;;;;;;;;;;;;;
